{"type":"FeatureCollection", "features": [
{"type":"Feature","geometry":{"type":"Polygon","coordinates":[[[178.13,-17.5],[177.67,-17.38],[177.38,-18.16],[178.55,-18.15],[178.13,-17.5]]]},"properties":{"NAME_ZH":"斐济","NAME_EN":"Fiji","ADM0_A3":"FJI"}},
{"type":"Feature","geometry":{"type":"Polygon","coordinates":[[[33.9,-0.95],[30.77,-1.01],[30.42,-1.13],[30.82,-1.7],[30.47,-2.41],[30.75,-3.36],[29.75,-4.45],[29.34,-4.5],[29.62,-6.52],[30.2,-7.08],[30.74,-8.34],[32.76,-9.23],[33.74,-9.42],[34.28,-10.16],[34.56,-11.52],[36.51,-11.72],[39.52,-10.9],[40.32,-10.32],[39.95,-10.1],[39.19,-8.49],[39.44,-6.84],[38.74,-5.91],[39.2,-4.68],[37.77,-3.68],[37.7,-3.1],[33.9,-0.95]]]},"properties":{"NAME_ZH":"坦桑尼亚","NAME_EN":"Tanzania","ADM0_A3":"TZA"}},
{"type":"Feature","geometry":{"type":"Polygon","coordinates":[[[-8.67,27.66],[-9.74,26.86],[-11.39,26.88],[-12.03,26.03],[-12.5,24.77],[-13.89,23.69],[-14.22,22.31],[-14.75,21.5],[-17.02,21.42],[-17.06,21],[-16.85,21.33],[-12.93,21.33],[-13.12,22.77],[-11.94,23.37],[-11.97,25.93],[-8.69,25.88],[-8.68,27.4],[-8.67,27.66]]]},"properties":{"NAME_ZH":"西撒哈拉","NAME_EN":"Western Sahara","ADM0_A3":"SAH"}},
{"type":"Feature","geometry":{"type":"MultiPolygon","coordinates":[[[[-122.84,49],[-116.05,49],[-113,49],[-107.05,49],[-100.65,49],[-95.16,49],[-91.64,48.14],[-89.6,48.01],[-88.38,48.3],[-84.88,46.9],[-83.59,45.82],[-82.55,45.35],[-82.14,43.57],[-83.12,42.08],[-82.44,41.68],[-78.94,42.86],[-78.72,43.63],[-76.82,43.63],[-74.87,45],[-71.51,45.01],[-70.66,45.46],[-69.24,47.45],[-67.79,47.07],[-67.79,45.7],[-67.14,45.14],[-65.36,43.55],[-63.25,44.67],[-61.04,45.27],[-61.52,45.88],[-63.17,45.74],[-64.47,46.24],[-65.12,48.07],[-64.17,48.74],[-65.06,49.23],[-67.24,49.51],[-66.4,50.23],[-63.86,50.29],[-61.72,50.08],[-60.03,50.24],[-58.77,51.06],[-57.13,51.42],[-55.68,52.15],[-55.76,53.27],[-56.94,53.78],[-57.33,54.63],[-59.57,55.2],[-61.8,56.34],[-61.4,56.97],[-64.58,60.34],[-66.2,58.77],[-67.65,58.21],[-69.29,58.96],[-69.59,61.06],[-71.37,61.14],[-73.84,62.44],[-74.67,62.18],[-78.11,62.32],[-77.34,59.85],[-78.52,58.8],[-77.3,58.05],[-76.54,56.53],[-79.12,54.14],[-78.6,52.56],[-79.14,51.53],[-79.91,51.21],[-81.4,52.16],[-82.44,54.28],[-82.27,55.15],[-85.01,55.3],[-87.32,56],[-89.04,56.85],[-90.9,57.28],[-92.3,57.09],[-93.22,58.78],[-94.68,58.95],[-94.63,60.11],[-93.16,62.02],[-90.77,62.96],[-89.91,64.03],[-88.48,64.1],[-86.07,66.06],[-83.34,66.41],[-81.39,67.11],[-81.96,68.13],[-81.28,69.16],[-82.62,69.66],[-85.52,69.88],[-85.58,68.78],[-88.02,68.62],[-91.52,70.19],[-92.88,71.32],[-95.21,71.92],[-96.39,71.19],[-96.47,70.09],[-94.23,69.07],[-94.68,68.06],[-97.67,68.58],[-98.44,67.78],[-101.45,67.65],[-104.34,68.02],[-106.15,68.8],[-108.17,68.65],[-109.95,67.98],[-113.5,67.69],[-113.9,68.4],[-119.94,69.38],[-121.47,69.8],[-125.76,69.48],[-127.45,70.38],[-132.93,69.51],[-134.41,69.63],[-136.5,68.9],[-140.99,69.71],[-140.99,66],[-141,60.31],[-139.04,60],[-137.45,58.91],[-135.48,59.79],[-133.36,58.41],[-131.71,56.55],[-130.01,55.92],[-130.54,54.8],[-129.31,53.56],[-129.13,52.76],[-127.85,52.33],[-127.44,50.83],[-125.62,50.42],[-122.84,49]]],[[[-88.15,74.39],[-83.23,74.56],[-79.83,74.92],[-81.13,75.71],[-86.38,75.48],[-92.89,75.88],[-92.42,74.84],[-88.15,74.39]]],[[[-55.6,51.32],[-56.74,51.29],[-58.39,49.13],[-59.23,48.52],[-59.27,47.6],[-56.25,47.63],[-54.18,46.81],[-53.07,46.66],[-52.65,47.54],[-53.48,49.25],[-55.82,49.59],[-56.14,50.15],[-55.6,51.32]]],[[[-83.88,65.11],[-85.88,65.74],[-86.35,64.04],[-85.52,63.05],[-83.11,64.1],[-80.99,63.41],[-80.1,63.73],[-83.88,65.11]]],[[[-78.77,72.35],[-80.6,72.72],[-82.32,73.75],[-86.56,73.16],[-88.41,73.54],[-90.21,72.24],[-89.51,70.76],[-84.94,69.97],[-81.31,69.74],[-77.29,69.77],[-72.65,67.28],[-74.29,65.81],[-77.9,65.31],[-77.71,64.23],[-74.82,64.39],[-71.89,63.68],[-71.02,62.91],[-68.88,62.33],[-66.17,61.93],[-66.28,62.95],[-64.67,63.39],[-65.32,64.38],[-68.14,65.69],[-66.72,66.39],[-63.92,65],[-62.16,66.16],[-64.86,67.85],[-68.81,68.72],[-66.97,69.19],[-68.79,70.53],[-71.2,70.92],[-77.82,72.75],[-78.77,72.35]]],[[[-94.5,74.13],[-96.03,72.94],[-94.27,72.02],[-90.51,73.86],[-94.5,74.13]]],[[[-122.85,76.12],[-119.9,76.05],[-116.34,76.88],[-119.1,77.51],[-122.85,76.12]]],[[[-123.51,48.51],[-125.76,50.3],[-128.36,50.77],[-128.06,49.99],[-127.03,49.81],[-125.66,48.83],[-123.51,48.51]]],[[[-121.54,74.45],[-123.94,73.68],[-125.93,71.87],[-123.09,70.9],[-120.46,71.38],[-119.22,72.52],[-115.51,73.48],[-117.56,74.19],[-121.54,74.45]]],[[[-107.82,75.85],[-108.55,76.68],[-112.59,76.14],[-115.4,76.48],[-117.71,75.22],[-112.22,74.42],[-106.31,75.01],[-107.82,75.85]]],[[[-106.52,73.08],[-112.44,72.96],[-115.19,73.31],[-117.87,72.71],[-119.4,71.56],[-116.11,69.17],[-113.31,68.54],[-109,68.78],[-105.96,69.18],[-102.43,68.75],[-100.98,70.02],[-104.46,70.99],[-105.4,72.67],[-106.52,73.08]]],[[[-100.44,72.71],[-102.5,72.51],[-98.36,71.27],[-96.72,71.66],[-97.12,73.47],[-100.36,73.84],[-100.44,72.71]]],[[[-98.5,76.72],[-101.49,76.31],[-100.88,75.06],[-98.16,75],[-98.5,76.72]]],[[[-96.02,80.6],[-96.08,79.71],[-92.88,78.34],[-89.04,78.29],[-85.81,79.34],[-87.81,80.32],[-94.74,81.21],[-96.02,80.6]]],[[[-91.59,81.89],[-89.37,80.86],[-87.6,80.52],[-85.09,79.35],[-88.26,77.9],[-89.49,76.47],[-80.56,76.18],[-79.76,77.21],[-75.39,78.53],[-76.22,79.02],[-71.18,79.8],[-61.89,82.36],[-63.68,82.9],[-79.31,83.13],[-91.59,81.89]]],[[[-96.26,69.49],[-98.22,70.14],[-99.8,69.4],[-96.27,68.76],[-96.26,69.49]]]]},"properties":{"NAME_ZH":"加拿大","NAME_EN":"Canada","ADM0_A3":"CAN"}},
{"type":"Feature","geometry":{"type":"MultiPolygon","coordinates":[[[[-122.84,49],[-122.5,48.18],[-124.69,48.18],[-124.08,46.86],[-123.9,45.52],[-124.14,43.71],[-124.53,42.77],[-124.21,42],[-124.4,40.31],[-123.73,38.95],[-121.71,36.16],[-120.37,34.45],[-118.52,34.03],[-117.3,33.05],[-117.13,32.54],[-114.81,32.53],[-111.02,31.33],[-108.24,31.34],[-108.24,31.75],[-106.51,31.75],[-105.04,30.64],[-104.46,29.57],[-103.11,28.97],[-102.48,29.76],[-100.96,29.38],[-99.52,27.54],[-99.02,26.37],[-97.53,25.84],[-97.37,27.38],[-96.59,28.31],[-94.69,29.48],[-93.23,29.78],[-91.63,29.68],[-90.88,29.15],[-89.41,29.16],[-89.18,30.32],[-86.4,30.4],[-85.11,29.64],[-83.71,29.94],[-82.65,28.55],[-82.86,27.89],[-81.17,25.2],[-80.38,25.21],[-80.06,26.88],[-81.49,30.73],[-81.34,31.44],[-80.3,32.51],[-78.55,33.86],[-76.36,34.81],[-75.73,35.55],[-76.3,37.92],[-75.72,37.94],[-74.18,39.71],[-73.98,40.63],[-71.94,40.93],[-70.64,41.48],[-70.81,42.87],[-70.12,43.68],[-68.03,44.33],[-67.14,45.14],[-67.79,45.7],[-67.79,47.07],[-69.24,47.45],[-70.66,45.46],[-71.51,45.01],[-74.87,45],[-76.82,43.63],[-78.72,43.63],[-78.94,42.86],[-82.44,41.68],[-83.12,42.08],[-82.14,43.57],[-82.55,45.35],[-83.59,45.82],[-84.88,46.9],[-88.38,48.3],[-89.6,48.01],[-91.64,48.14],[-95.16,49],[-100.65,49],[-107.05,49],[-113,49],[-116.05,49],[-122.84,49]]],[[[-153.23,57.97],[-154.67,57.46],[-154.01,56.73],[-152.14,57.59],[-153.23,57.97]]],[[[-140.99,69.71],[-144.92,69.99],[-152.27,70.6],[-156.58,71.36],[-161.91,70.33],[-165.39,68.04],[-161.68,66.12],[-164.47,66.58],[-168.11,65.67],[-166.43,64.69],[-162.45,64.56],[-160.96,64.22],[-163.07,63.06],[-164.56,63.15],[-166.12,61.5],[-165.35,60.51],[-163.82,59.8],[-161.87,59.63],[-159.06,58.42],[-157.55,58.33],[-157.72,57.57],[-160.56,56.01],[-158.43,55.99],[-156.31,57.42],[-154.23,58.15],[-153.29,58.86],[-154.02,59.35],[-152.58,60.06],[-151.72,59.16],[-148.02,59.98],[-147.11,60.88],[-143.96,60],[-142.57,60.08],[-139.87,59.54],[-137.8,58.5],[-134.08,58.12],[-133.54,57.18],[-132.25,56.37],[-131.97,55.5],[-130.54,54.8],[-130.01,55.92],[-131.71,56.55],[-133.36,58.41],[-135.48,59.79],[-137.45,58.91],[-139.04,60],[-141,60.31],[-140.99,66],[-140.99,69.71]]]]},"properties":{"NAME_ZH":"美国","NAME_EN":"United States of America","ADM0_A3":"USA"}},
{"type":"Feature","geometry":{"type":"Polygon","coordinates":[[[87.36,49.21],[86.83,49.83],[85.54,49.69],[83.38,51.07],[81.95,50.81],[80.57,51.39],[80.04,50.86],[77.8,53.4],[76.53,54.18],[74.38,53.55],[72.22,54.38],[70.87,55.17],[69.07,55.39],[68.17,54.97],[65.18,54.35],[61.44,54.01],[61.7,52.98],[59.97,51.96],[61.59,51.27],[61.34,50.8],[56.78,51.04],[55.72,50.62],[52.33,51.72],[50.77,51.69],[48.7,50.61],[47.55,50.45],[46.47,48.39],[48.06,47.74],[49.1,46.4],[51.19,47.05],[53.04,46.85],[53.04,45.26],[51.32,45.25],[50.89,44.03],[51.34,43.13],[52.5,42.79],[52.5,41.78],[54.08,42.32],[55.46,41.26],[55.97,41.31],[55.93,45],[58.5,45.59],[61.06,44.41],[62.01,43.5],[64.9,43.73],[66.1,43],[66.02,41.99],[66.71,41.17],[69.07,41.38],[70.96,42.27],[71.84,42.85],[73.49,42.5],[74.21,43.3],[76,42.99],[79.14,42.86],[80.26,42.35],[80.87,43.18],[79.97,44.92],[82.46,45.54],[83.18,47.33],[85.16,47],[85.77,48.46],[87.36,49.21]]]},"properties":{"NAME_ZH":"哈萨克斯坦","NAME_EN":"Kazakhstan","ADM0_A3":"KAZ"}},
{"type":"Feature","geometry":{"type":"Polygon","coordinates":[[[55.97,41.31],[58.63,42.75],[59.98,42.22],[60.08,41.43],[61.88,41.08],[62.37,40.05],[64.17,38.89],[66.55,37.97],[66.52,37.36],[67.83,37.14],[68.39,38.16],[68.18,38.9],[69.33,40.73],[70.67,40.96],[71.01,40.24],[71.77,40.15],[73.06,40.87],[71.87,41.39],[70.42,41.52],[70.96,42.27],[69.07,41.38],[66.71,41.17],[66.02,41.99],[66.1,43],[64.9,43.73],[62.01,43.5],[61.06,44.41],[58.5,45.59],[55.93,45],[55.97,41.31]]]},"properties":{"NAME_ZH":"乌兹别克斯坦","NAME_EN":"Uzbekistan","ADM0_A3":"UZB"}},
{"type":"Feature","geometry":{"type":"MultiPolygon","coordinates":[[[[141,-2.6],[141.02,-5.86],[141.03,-9.12],[142.63,-9.33],[143.41,-8.98],[143.29,-8.25],[144.74,-7.63],[146.05,-8.07],[146.57,-8.94],[147.91,-10.13],[149.78,-10.39],[149.74,-9.87],[148.73,-9.1],[148.08,-8.04],[147.19,-7.39],[146.97,-6.72],[147.65,-6.08],[145.98,-5.47],[145.83,-4.88],[144.58,-3.86],[141,-2.6]]],[[[151.3,-5.84],[151.98,-5.48],[152.34,-4.31],[150.81,-5.46],[148.32,-5.75],[149.71,-6.32],[151.3,-5.84]]],[[[154.76,-5.34],[154.73,-5.9],[155.6,-6.92],[156.02,-6.54],[154.76,-5.34]]]]},"properties":{"NAME_ZH":"巴布亚新几内亚","NAME_EN":"Papua New Guinea","ADM0_A3":"PNG"}},
{"type":"Feature","geometry":{"type":"MultiPolygon","coordinates":[[[[141,-2.6],[139.93,-2.41],[138.33,-1.7],[137.44,-1.7],[136.29,-2.31],[135.46,-3.37],[134.42,-2.77],[133.99,-0.78],[132.38,-0.37],[130.94,-1.43],[131.84,-1.62],[131.99,-2.82],[133.66,-3.54],[135.16,-4.46],[135.99,-4.55],[137.93,-5.39],[138.67,-7.32],[138.04,-7.6],[137.61,-8.41],[140.14,-8.3],[141.03,-9.12],[141.02,-5.86],[141,-2.6]]],[[[124.97,-8.89],[123.98,-9.29],[124.44,-10.14],[125.09,-9.39],[124.97,-8.89]]],[[[117.88,4.14],[115.87,4.31],[114.62,1.43],[113.81,1.22],[112.86,1.5],[111.8,0.9],[110.51,0.77],[109.66,2.01],[109.07,1.34],[109.09,-0.46],[110.07,-1.59],[110.22,-2.93],[111.7,-2.99],[112.07,-3.48],[113.26,-3.12],[114.47,-3.5],[114.86,-4.11],[116,-3.66],[116.53,-2.48],[116.56,-1.49],[117.52,-0.8],[117.81,0.78],[119,0.9],[117.88,1.83],[118.05,2.29],[117.31,3.23],[117.88,4.14]]],[[[129.37,-2.8],[128.14,-2.84],[127.9,-3.39],[129.99,-3.45],[129.37,-2.8]]],[[[127.93,2.17],[127.4,1.01],[128.64,0.26],[128.59,1.54],[127.93,2.17]]],[[[122.93,0.88],[120.89,1.31],[120.04,0.57],[118.77,-2.8],[119.5,-3.49],[119.65,-4.46],[119.37,-5.38],[120.43,-5.53],[120.31,-2.93],[121.62,-4.19],[121.74,-4.85],[122.63,-5.63],[123.17,-4.68],[122.27,-3.53],[122.45,-3.19],[121.51,-1.9],[120.04,-0.52],[120.18,0.24],[122.72,0.43],[122.93,0.88]]],[[[108.49,-6.42],[107.27,-5.95],[106.05,-5.9],[105.37,-6.85],[106.45,-7.35],[108.28,-7.77],[109.43,-7.74],[111.52,-8.3],[113.46,-8.35],[114.56,-8.75],[114.48,-7.78],[112.98,-7.59],[112.61,-6.95],[110.76,-6.47],[110.54,-6.88],[108.62,-6.78],[108.49,-6.42]]],[[[104.37,-1.08],[103.44,-0.71],[103.84,0.1],[103.08,0.56],[101.66,2.08],[100.64,2.1],[99.69,3.17],[97.48,5.25],[95.29,5.48],[95.38,4.97],[97.18,3.31],[97.7,2.45],[98.6,1.82],[99.26,0.18],[100.14,-0.65],[101.4,-2.8],[102.58,-4.22],[103.87,-5.04],[104.71,-5.87],[105.82,-5.85],[106.11,-3.06],[105.62,-2.43],[104.89,-2.34],[104.37,-1.08]]]]},"properties":{"NAME_ZH":"印度尼西亚","NAME_EN":"Indonesia","ADM0_A3":"IDN"}},
{"type":"Feature","geometry":{"type":"MultiPolygon","coordinates":[[[[-68.63,-52.64],[-68.63,-54.87],[-66.96,-54.9],[-68.63,-52.64]]],[[[-57.63,-30.22],[-55.16,-27.88],[-53.65,-26.92],[-53.63,-26.12],[-54.63,-25.74],[-54.79,-26.62],[-55.7,-27.39],[-56.49,-27.55],[-58.62,-27.12],[-57.63,-25.6],[-57.78,-25.16],[-60.03,-24.03],[-60.85,-23.88],[-62.69,-22.25],[-63.99,-21.99],[-66.27,-21.83],[-67.11,-22.74],[-67.33,-24.03],[-68.42,-24.52],[-68.3,-26.9],[-69.66,-28.46],[-70.01,-29.37],[-69.92,-30.34],[-70.54,-31.37],[-69.82,-34.19],[-70.39,-35.17],[-70.36,-36.01],[-71.12,-36.66],[-70.81,-38.55],[-71.41,-38.92],[-72.15,-42.25],[-71.55,-45.56],[-72.45,-47.74],[-72.65,-48.88],[-73.42,-49.32],[-73.33,-50.38],[-72.31,-50.68],[-71.91,-52.01],[-68.57,-52.3],[-69.14,-50.73],[-67.82,-49.87],[-67.17,-48.7],[-65.99,-48.13],[-65.64,-47.24],[-67.58,-46.3],[-66.51,-45.04],[-65.57,-45.04],[-65.18,-43.5],[-64.38,-42.87],[-65.12,-41.06],[-63.77,-41.17],[-62.15,-40.68],[-62.34,-38.83],[-59.23,-38.72],[-57.75,-38.18],[-56.79,-36.9],[-57.36,-35.98],[-57.23,-35.29],[-58.5,-34.43],[-58.43,-33.91],[-58.14,-32.04],[-57.63,-30.22]]]]},"properties":{"NAME_ZH":"阿根廷","NAME_EN":"Argentina","ADM0_A3":"ARG"}},
{"type":"Feature","geometry":{"type":"MultiPolygon","coordinates":[[[[-68.63,-52.64],[-70.27,-52.93],[-71.11,-54.07],[-71.01,-55.05],[-68.15,-55.61],[-66.96,-54.9],[-68.63,-54.87],[-68.63,-52.64]]],[[[-67.11,-22.74],[-67.83,-22.87],[-68.76,-20.37],[-68.44,-19.41],[-68.97,-18.98],[-69.59,-17.58],[-70.37,-18.35],[-70.09,-21.39],[-70.72,-25.71],[-70.91,-27.64],[-71.49,-28.86],[-71.37,-30.1],[-71.67,-30.92],[-71.44,-32.42],[-71.86,-33.91],[-73.17,-37.12],[-73.59,-37.16],[-73.22,-39.26],[-73.68,-39.94],[-74.33,-43.22],[-74.69,-45.76],[-75.64,-46.65],[-74.13,-46.94],[-75.18,-47.71],[-75.61,-48.67],[-75.48,-50.38],[-74.98,-51.04],[-74.95,-52.26],[-72.56,-53.53],[-71.01,-53.83],[-70.85,-52.9],[-68.57,-52.3],[-71.91,-52.01],[-72.31,-50.68],[-73.33,-50.38],[-73.42,-49.32],[-72.65,-48.88],[-72.45,-47.74],[-71.55,-45.56],[-72.15,-42.25],[-71.41,-38.92],[-70.81,-38.55],[-71.12,-36.66],[-70.36,-36.01],[-70.39,-35.17],[-69.82,-34.19],[-70.54,-31.37],[-69.92,-30.34],[-70.01,-29.37],[-69.66,-28.46],[-68.3,-26.9],[-68.42,-24.52],[-67.33,-24.03],[-67.11,-22.74]]]]},"properties":{"NAME_ZH":"智利","NAME_EN":"Chile","ADM0_A3":"CHL"}},
{"type":"Feature","geometry":{"type":"Polygon","coordinates":[[[29.34,-4.5],[29.02,-2.84],[29.58,-1.34],[29.88,0.6],[30.77,2.34],[30.83,3.51],[29.72,4.6],[28.43,4.29],[27.37,5.23],[24.41,5.11],[22.41,4.03],[20.93,4.32],[19.47,5.03],[18.54,4.2],[18.45,3.5],[17.9,1.74],[17.83,0.29],[17.52,-0.74],[16.41,-1.74],[15.97,-2.71],[16.01,-3.54],[14.58,-4.97],[14.14,-4.51],[13,-4.78],[12.18,-5.79],[12.32,-6.1],[13.38,-5.86],[16.33,-5.88],[16.86,-7.22],[17.47,-8.07],[19.02,-7.99],[19.42,-7.16],[21.73,-7.29],[21.88,-9.52],[22.21,-9.89],[22.16,-11.08],[23.91,-10.93],[25.42,-11.33],[25.75,-11.78],[28.16,-12.27],[28.93,-13.25],[29.34,-12.36],[28.37,-11.79],[28.73,-8.53],[30.74,-8.34],[30.2,-7.08],[29.62,-6.52],[29.34,-4.5]]]},"properties":{"NAME_ZH":"刚果民主共和国","NAME_EN":"Democratic Republic of the Congo","ADM0_A3":"COD"}},
{"type":"Feature","geometry":{"type":"Polygon","coordinates":[[[41.59,-1.68],[43.14,0.29],[46.56,2.86],[48.59,5.34],[49.45,6.8],[50.55,9.2],[51.05,10.64],[51.11,12.02],[48.95,11.41],[48.94,9.45],[47.79,8],[44.96,5],[43.66,4.96],[41.86,3.92],[40.98,2.78],[40.99,-0.86],[41.59,-1.68]]]},"properties":{"NAME_ZH":"索马里","NAME_EN":"Somalia","ADM0_A3":"SOM"}},
{"type":"Feature","geometry":{"type":"Polygon","coordinates":[[[39.2,-4.68],[39.6,-4.35],[40.26,-2.57],[41.59,-1.68],[40.99,-0.86],[40.98,2.78],[41.86,3.92],[40.77,4.26],[39.56,3.42],[38.12,3.6],[36.86,4.45],[36.16,4.45],[35.3,5.51],[34.01,4.25],[34.48,3.56],[35.04,1.91],[33.89,0.11],[33.9,-0.95],[37.7,-3.1],[37.77,-3.68],[39.2,-4.68]]]},"properties":{"NAME_ZH":"肯尼亚","NAME_EN":"Kenya","ADM0_A3":"KEN"}},
{"type":"Feature","geometry":{"type":"Polygon","coordinates":[[[24.57,8.23],[24.54,8.92],[25.07,10.27],[25.79,10.41],[26.48,9.55],[28.97,9.4],[30,10.29],[31.35,9.81],[32.4,11.08],[32.31,11.68],[33.21,12.18],[33.21,10.72],[33.72,10.33],[33.97,8.68],[34.26,10.63],[34.73,10.91],[35.26,12.08],[35.86,12.58],[36.43,14.42],[36.32,14.82],[36.85,16.96],[38.41,18],[37.48,18.61],[37.11,19.81],[37.19,21.02],[36.87,22],[32.9,22],[29.02,22],[25,22],[25,20],[23.84,19.58],[23.89,15.61],[23.02,15.68],[22.3,14.33],[22.04,12.96],[22.86,11.14],[23.55,10.09],[23.46,8.95],[24.57,8.23]]]},"properties":{"NAME_ZH":"苏丹","NAME_EN":"Sudan","ADM0_A3":"SDN"}},
{"type":"Feature","geometry":{"type":"Polygon","coordinates":[[[23.84,19.58],[19.85,21.5],[15.86,23.41],[14.85,22.86],[15.1,21.31],[15.9,20.39],[15.3,17.93],[15.25,16.63],[13.97,15.68],[13.54,14.37],[14.5,12.86],[14.89,12.22],[14.92,10.89],[15.47,9.98],[14.17,10.02],[13.95,9.55],[14.98,8.8],[15.28,7.42],[16.71,7.51],[17.96,7.89],[19.09,9.07],[20.06,9.01],[21,9.48],[21.72,10.57],[22.86,11.14],[22.04,12.96],[22.3,14.33],[23.02,15.68],[23.89,15.61],[23.84,19.58]]]},"properties":{"NAME_ZH":"乍得","NAME_EN":"Chad","ADM0_A3":"TCD"}},
{"type":"Feature","geometry":{"type":"Polygon","coordinates":[[[-71.71,19.71],[-72.78,19.48],[-72.69,18.45],[-71.71,18.04],[-71.71,19.71]]]},"properties":{"NAME_ZH":"海地","NAME_EN":"Haiti","ADM0_A3":"HTI"}},
{"type":"Feature","geometry":{"type":"Polygon","coordinates":[[[-71.71,18.04],[-71,18.28],[-68.32,18.61],[-69.22,19.31],[-70.81,19.88],[-71.71,19.71],[-71.71,18.04]]]},"properties":{"NAME_ZH":"多米尼加","NAME_EN":"Dominican Republic","ADM0_A3":"DOM"}},
{"type":"Feature","geometry":{"type":"MultiPolygon","coordinates":[[[[87.36,49.21],[87.75,49.3],[88.81,49.47],[92.23,50.8],[94.15,50.48],[94.82,50.01],[97.26,49.73],[98.23,50.42],[97.83,51.01],[98.86,52.05],[102.07,51.26],[102.26,50.51],[103.68,50.09],[105.89,50.41],[106.89,50.27],[108.48,49.28],[110.66,49.13],[112.9,49.54],[114.36,50.25],[115.49,49.81],[116.68,49.89],[117.88,49.51],[120.74,51.96],[121,53.25],[123.57,53.46],[125.95,52.79],[127.66,49.76],[129.4,49.44],[130.58,48.73],[130.99,47.79],[132.51,47.79],[135.03,48.48],[134.11,47.21],[133.1,45.14],[131.88,45.32],[131.03,44.97],[131.14,42.93],[130.64,42.4],[130.78,42.22],[132.28,43.28],[133.54,42.81],[134.87,43.4],[138.22,46.31],[138.55,47],[140.06,48.45],[140.6,51.24],[141.38,52.24],[141.35,53.09],[139.9,54.19],[137.19,53.98],[136.7,54.6],[135.13,54.73],[138.96,57.09],[142.2,59.04],[145.49,59.34],[148.54,59.16],[149.78,59.66],[151.34,59.5],[151.27,58.78],[155.04,59.14],[154.22,59.76],[156.72,61.43],[159.3,61.77],[160.12,60.54],[162.66,61.64],[163.67,61.14],[161.87,60.34],[158.36,58.06],[156.81,57.83],[155.91,56.77],[155.43,55.38],[155.99,53.16],[156.79,51.01],[158.23,51.94],[158.53,52.96],[160.02,53.2],[160.37,54.34],[162.12,54.86],[162.13,56.12],[163.06,56.16],[163.19,57.62],[162.02,58.24],[163.54,59.87],[166.29,59.79],[168.9,60.57],[170.7,60.34],[173.68,61.65],[179.37,62.98],[178.31,64.08],[180,64.98],[180,68.96],[175.72,69.88],[170.45,70.1],[170.82,69.01],[167.84,69.58],[160.94,69.44],[159.83,70.45],[157.01,71.03],[152.97,70.84],[149.5,72.2],[140.47,72.85],[139.15,72.42],[139.87,71.49],[133.86,71.39],[131.29,70.79],[128.46,71.98],[128.59,73.04],[126.98,73.57],[123.26,73.74],[123.2,72.97],[119.02,73.12],[118.78,73.59],[113.97,73.59],[109.4,74.18],[113.89,75.33],[114.13,75.85],[111.08,76.71],[108.15,76.72],[104.35,77.7],[98.92,76.45],[87.17,75.12],[86.82,73.94],[80.51,73.65],[79.65,72.32],[75.68,72.3],[73.1,71.45],[72.59,72.78],[69.94,73.04],[66.69,71.03],[66.93,69.45],[69.18,68.62],[68.51,68.09],[63.5,69.55],[60.55,69.85],[61.08,68.94],[57.32,68.47],[53.49,68.2],[53.72,68.86],[48.14,67.52],[46.35,66.67],[43.95,66.07],[42.09,66.48],[39.76,65.5],[39.59,64.52],[37.18,65.14],[34.94,64.41],[34.81,65.9],[33.92,66.76],[38.38,66],[41.13,66.79],[40.29,67.93],[36.51,69.06],[31.1,69.56],[28.59,69.06],[28.45,68.36],[29.98,67.7],[29.05,66.94],[30.22,65.81],[29.54,64.95],[30.04,63.55],[31.52,62.87],[31.14,62.36],[28.07,60.5],[27.98,59.48],[27.29,57.47],[28.18,56.17],[30.87,55.55],[30.76,54.81],[31.73,53.79],[31.79,52.1],[33.75,52.34],[35.36,50.58],[38.01,49.92],[40.07,49.6],[39.74,47.9],[38.77,47.83],[38.22,47.1],[38.23,46.24],[37.4,45.4],[37.54,44.66],[39.96,43.43],[42.39,43.22],[43.76,42.74],[45.47,42.5],[46.4,41.86],[47.82,41.15],[48.58,41.81],[47.49,42.99],[47.59,43.66],[46.68,44.61],[47.68,45.64],[49.1,46.4],[48.06,47.74],[46.47,48.39],[47.55,50.45],[48.7,50.61],[50.77,51.69],[52.33,51.72],[55.72,50.62],[56.78,51.04],[61.34,50.8],[61.59,51.27],[59.97,51.96],[61.7,52.98],[61.44,54.01],[65.18,54.35],[68.17,54.97],[69.07,55.39],[70.87,55.17],[72.22,54.38],[74.38,53.55],[76.53,54.18],[77.8,53.4],[80.04,50.86],[80.57,51.39],[81.95,50.81],[83.38,51.07],[85.54,49.69],[86.83,49.83],[87.36,49.21]]],[[[93.78,81.02],[91.18,80.34],[93.31,79.43],[97.76,78.76],[100.19,79.78],[95.94,81.25],[93.78,81.02]]],[[[102.84,79.28],[99.44,77.92],[105.08,78.31],[102.84,79.28]]],[[[138.83,76.14],[136.97,75.26],[138.96,74.61],[144.3,74.82],[145.09,75.56],[138.83,76.14]]],[[[22.73,54.33],[21.27,55.19],[19.66,54.43],[22.73,54.33]]],[[[53.51,73.75],[51.46,72.01],[53.68,70.76],[56.94,70.63],[55.42,72.37],[58.48,74.31],[61.58,75.26],[68.18,76.23],[61.17,76.25],[55.63,75.08],[53.51,73.75]]],[[[142.91,53.7],[141.68,53.3],[141.59,51.94],[142.18,50.95],[141.9,48.86],[141.91,46.81],[143.53,46.84],[142.56,47.86],[143.17,49.31],[144.65,48.98],[143.24,51.76],[142.91,53.7]]],[[[-174.93,67.21],[-180,68.96],[-180,64.98],[-178.36,65.39],[-173.89,64.28],[-172.55,64.46],[-172.53,65.44],[-169.9,65.98],[-171.86,66.91],[-174.93,67.21]]],[[[33.44,45.97],[33.88,44.36],[35.24,44.94],[35.01,45.74],[33.44,45.97]]]]},"properties":{"NAME_ZH":"俄罗斯","NAME_EN":"Russia","ADM0_A3":"RUS"}},
{"type":"Feature","geometry":{"type":"Polygon","coordinates":[[[-78.19,25.21],[-78.41,24.58],[-77.54,24.34],[-77.89,25.17],[-78.19,25.21]]]},"properties":{"NAME_ZH":"巴哈马","NAME_EN":"The Bahamas","ADM0_A3":"BHS"}},
{"type":"Feature","geometry":{"type":"Polygon","coordinates":[[[-61.2,-51.85],[-60.7,-52.3],[-58.05,-51.9],[-60,-51.25],[-61.2,-51.85]]]},"properties":{"NAME_ZH":"福克兰群岛","NAME_EN":"Falkland Islands","ADM0_A3":"FLK"}},
{"type":"Feature","geometry":{"type":"MultiPolygon","coordinates":[[[[15.14,79.67],[10.44,79.65],[13.76,77.38],[17.12,76.81],[19.03,78.56],[21.54,78.96],[16.99,80.05],[15.14,79.67]]],[[[31.1,69.56],[31.29,70.45],[28.17,71.19],[24.55,71.03],[23.02,70.2],[19.18,69.82],[14.76,67.81],[10.53,64.49],[8.55,63.45],[5.91,62.61],[4.99,61.97],[5.67,58.59],[7.05,58.08],[8.38,58.31],[10.36,59.47],[11.03,58.86],[12.3,60.12],[12.63,61.29],[11.99,61.8],[11.93,63.13],[15.11,66.19],[16.77,68.01],[20.65,69.11],[24.74,68.65],[26.18,69.83],[29.02,69.77],[28.59,69.06],[31.1,69.56]]],[[[27.41,80.06],[22.92,80.66],[17.37,80.32],[20.08,79.57],[25.92,79.52],[27.41,80.06]]]]},"properties":{"NAME_ZH":"挪威","NAME_EN":"Norway","ADM0_A3":"NOR"}},
{"type":"Feature","geometry":{"type":"Polygon","coordinates":[[[-46.76,82.63],[-62.65,81.77],[-68.02,80.12],[-65.71,79.39],[-73.16,78.43],[-71.4,77.01],[-68.5,76.06],[-61.27,76.1],[-58.59,75.52],[-54.72,72.59],[-54,71.55],[-54.68,69.61],[-51.48,68.73],[-52.98,68.36],[-53.97,67.19],[-53.66,66.1],[-52.28,65.18],[-51.63,63.63],[-48.26,60.86],[-46.26,60.85],[-44.79,60.04],[-43.38,60.1],[-42.42,61.9],[-42.82,62.68],[-41.19,63.48],[-39.81,65.46],[-36.35,65.98],[-34.2,66.68],[-32.81,67.74],[-27.75,68.47],[-22.35,70.13],[-21.75,70.66],[-23.44,72.08],[-19.37,74.3],[-19.83,76.1],[-18.47,76.99],[-19.7,78.75],[-17.73,80.13],[-12.21,81.29],[-27.1,83.52],[-38.62,83.55],[-46.76,82.63]]]},"properties":{"NAME_ZH":"格陵兰","NAME_EN":"Greenland","ADM0_A3":"GRL"}},
{"type":"Feature","geometry":{"type":"Polygon","coordinates":[[[68.94,-48.62],[68.75,-49.77],[70.28,-49.71],[70.53,-49.06],[68.94,-48.62]]]},"properties":{"NAME_ZH":"法属南部和南极领地","NAME_EN":"French Southern and Antarctic Lands","ADM0_A3":"ATF"}},
{"type":"Feature","geometry":{"type":"Polygon","coordinates":[[[125.09,-9.39],[126.97,-8.67],[126.64,-8.4],[124.97,-8.89],[125.09,-9.39]]]},"properties":{"NAME_ZH":"东帝汶","NAME_EN":"East Timor","ADM0_A3":"TLS"}},
{"type":"Feature","geometry":{"type":"Polygon","coordinates":[[[16.34,-28.58],[18.22,-31.66],[18.24,-33.87],[19.62,-34.82],[22.57,-33.86],[25.78,-33.94],[28.22,-32.77],[30.06,-31.14],[31.33,-29.4],[32.46,-28.3],[32.83,-26.74],[32.07,-26.73],[31.28,-27.29],[30.69,-26.74],[31.04,-25.73],[31.84,-25.84],[31.93,-24.37],[31.19,-22.25],[29.43,-22.09],[28.02,-22.83],[27.12,-23.57],[25.66,-25.49],[24.21,-25.67],[23.31,-25.27],[21.61,-26.73],[20.89,-26.83],[20.76,-25.87],[19.9,-24.77],[19.89,-28.46],[18.46,-29.05],[16.34,-28.58]],[[28.98,-28.96],[28.85,-30.07],[27.75,-30.65],[27,-29.88],[28.54,-28.65],[28.98,-28.96]]]},"properties":{"NAME_ZH":"南非","NAME_EN":"South Africa","ADM0_A3":"ZAF"}},
{"type":"Feature","geometry":{"type":"Polygon","coordinates":[[[28.98,-28.96],[28.54,-28.65],[27,-29.88],[27.75,-30.65],[28.85,-30.07],[28.98,-28.96]]]},"properties":{"NAME_ZH":"莱索托","NAME_EN":"Lesotho","ADM0_A3":"LSO"}},
{"type":"Feature","geometry":{"type":"Polygon","coordinates":[[[-117.13,32.54],[-115.52,29.56],[-114.16,28.57],[-114.47,27.14],[-112.3,26.01],[-112.18,24.74],[-110.3,23.43],[-110.71,24.83],[-111.62,26.66],[-112.76,27.78],[-112.96,28.43],[-114.67,30.16],[-114.78,31.8],[-113.15,31.17],[-112.23,28.95],[-110.39,27.16],[-109.29,26.44],[-109.44,25.82],[-108.4,25.17],[-106.03,22.77],[-105.27,21.08],[-105.73,20.43],[-104.99,19.32],[-103.5,18.29],[-101.92,17.92],[-100.83,17.17],[-96.56,15.65],[-94.69,16.2],[-93.36,15.62],[-92.23,14.54],[-91.75,16.07],[-90.46,16.07],[-91,17.82],[-89.14,17.81],[-88.3,18.5],[-87.84,18.26],[-87.38,20.26],[-86.85,20.85],[-87.05,21.54],[-88.54,21.49],[-90.28,21],[-90.77,19.28],[-91.41,18.88],[-94.43,18.14],[-95.9,18.83],[-97.19,20.64],[-97.87,22.44],[-97.53,25.84],[-99.02,26.37],[-99.52,27.54],[-100.96,29.38],[-102.48,29.76],[-103.11,28.97],[-104.46,29.57],[-105.04,30.64],[-106.51,31.75],[-108.24,31.75],[-108.24,31.34],[-111.02,31.33],[-114.81,32.53],[-117.13,32.54]]]},"properties":{"NAME_ZH":"墨西哥","NAME_EN":"Mexico","ADM0_A3":"MEX"}},
{"type":"Feature","geometry":{"type":"Polygon","coordinates":[[[-58.43,-33.91],[-57.82,-34.46],[-54.94,-34.95],[-53.81,-34.4],[-53.37,-33.77],[-53.21,-32.73],[-53.79,-32.05],[-56.98,-30.11],[-57.63,-30.22],[-58.14,-32.04],[-58.43,-33.91]]]},"properties":{"NAME_ZH":"乌拉圭","NAME_EN":"Uruguay","ADM0_A3":"URY"}},
{"type":"Feature","geometry":{"type":"Polygon","coordinates":[[[-57.63,-30.22],[-56.98,-30.11],[-53.79,-32.05],[-53.21,-32.73],[-53.37,-33.77],[-52.26,-32.25],[-50.7,-30.98],[-49.59,-29.22],[-48.89,-28.67],[-48.47,-27.18],[-48.5,-25.88],[-47.65,-24.89],[-46.47,-24.09],[-44.65,-23.35],[-43.07,-22.97],[-41.99,-22.97],[-40.94,-21.94],[-40.77,-20.9],[-39.76,-19.6],[-39.27,-17.87],[-38.88,-15.67],[-38.95,-13.79],[-37.68,-12.17],[-37.05,-11.04],[-35.13,-9],[-34.73,-7.34],[-35.24,-5.46],[-35.6,-5.15],[-37.22,-4.82],[-38.5,-3.7],[-39.98,-2.87],[-41.47,-2.91],[-44.42,-2.14],[-44.91,-1.55],[-48.62,-0.24],[-50.39,-0.08],[-49.95,1.05],[-50.51,1.9],[-51.32,4.2],[-51.66,4.16],[-52.94,2.12],[-54.52,2.31],[-55.97,2.51],[-56.54,1.9],[-59.03,1.32],[-59.65,1.79],[-59.97,2.76],[-59.54,3.96],[-60.73,5.2],[-60.97,4.54],[-62.8,4.01],[-64.37,3.8],[-64.2,1.49],[-66.33,0.72],[-66.88,1.25],[-67.87,1.69],[-69.82,1.71],[-70.02,-0.19],[-69.58,-0.55],[-69.44,-1.56],[-69.89,-4.3],[-70.79,-4.25],[-72.89,-5.27],[-73.12,-6.63],[-73.99,-7.52],[-73.57,-8.42],[-72.18,-10.05],[-71.3,-10.08],[-70.48,-9.49],[-70.55,-11.01],[-69.53,-10.95],[-68.27,-11.01],[-66.65,-9.93],[-65.34,-9.76],[-65.4,-11.57],[-64.32,-12.46],[-63.2,-12.63],[-61.71,-13.49],[-60.5,-13.78],[-60.16,-16.26],[-58.24,-16.3],[-58.28,-17.27],[-57.5,-18.17],[-58.17,-20.18],[-57.87,-20.73],[-57.94,-22.09],[-56.47,-22.09],[-55.61,-22.66],[-55.4,-23.96],[-54.65,-23.84],[-54.29,-24.57],[-54.63,-25.74],[-53.63,-26.12],[-53.65,-26.92],[-55.16,-27.88],[-57.63,-30.22]]]},"properties":{"NAME_ZH":"巴西","NAME_EN":"Brazil","ADM0_A3":"BRA"}},
{"type":"Feature","geometry":{"type":"Polygon","coordinates":[[[-62.69,-22.25],[-62.27,-20.51],[-61.79,-19.63],[-59.12,-19.36],[-58.17,-20.18],[-57.5,-18.17],[-58.28,-17.27],[-58.24,-16.3],[-60.16,-16.26],[-60.5,-13.78],[-61.71,-13.49],[-63.2,-12.63],[-64.32,-12.46],[-65.4,-11.57],[-65.34,-9.76],[-66.65,-9.93],[-68.27,-11.01],[-69.53,-10.95],[-68.67,-12.56],[-68.95,-14.45],[-69.39,-15.66],[-68.96,-16.5],[-69.59,-17.58],[-68.97,-18.98],[-68.44,-19.41],[-68.76,-20.37],[-67.83,-22.87],[-67.11,-22.74],[-66.27,-21.83],[-63.99,-21.99],[-62.69,-22.25]]]},"properties":{"NAME_ZH":"玻利维亚","NAME_EN":"Bolivia","ADM0_A3":"BOL"}},
{"type":"Feature","geometry":{"type":"Polygon","coordinates":[[[-69.59,-17.58],[-68.96,-16.5],[-69.39,-15.66],[-68.95,-14.45],[-68.67,-12.56],[-69.53,-10.95],[-70.55,-11.01],[-70.48,-9.49],[-71.3,-10.08],[-72.18,-10.05],[-73.57,-8.42],[-73.99,-7.52],[-73.12,-6.63],[-72.89,-5.27],[-70.79,-4.25],[-69.89,-4.3],[-70.39,-3.77],[-70.05,-2.73],[-70.81,-2.26],[-73.07,-2.31],[-73.66,-1.26],[-75.11,-0.06],[-75.37,-0.15],[-75.54,-1.56],[-76.64,-2.61],[-77.84,-3],[-78.64,-4.55],[-80.44,-4.43],[-80.3,-3.4],[-81.41,-4.74],[-80.93,-5.69],[-81.25,-6.14],[-79.76,-7.19],[-79.04,-8.39],[-77.11,-12.22],[-76.26,-13.54],[-76.01,-14.65],[-73.44,-16.36],[-71.46,-17.36],[-70.37,-18.35],[-69.59,-17.58]]]},"properties":{"NAME_ZH":"秘鲁","NAME_EN":"Peru","ADM0_A3":"PER"}},
{"type":"Feature","geometry":{"type":"Polygon","coordinates":[[[-66.88,1.25],[-67.3,3.32],[-67.82,4.5],[-67.34,6.1],[-69.39,6.1],[-70.09,6.96],[-71.96,6.99],[-72.79,9.09],[-73.3,9.15],[-72.91,10.45],[-71.97,11.61],[-71.33,11.78],[-71.75,12.44],[-73.41,11.23],[-74.2,11.31],[-75.48,10.62],[-75.67,9.44],[-76.84,8.64],[-77.35,8.67],[-77.24,7.94],[-77.88,7.22],[-77.48,6.69],[-77.53,5.58],[-77.13,3.85],[-77.93,2.7],[-78.43,2.63],[-78.86,1.38],[-77.42,0.4],[-76.29,0.42],[-75.37,-0.15],[-75.11,-0.06],[-73.66,-1.26],[-73.07,-2.31],[-70.81,-2.26],[-70.05,-2.73],[-70.39,-3.77],[-69.89,-4.3],[-69.44,-1.56],[-69.58,-0.55],[-70.02,-0.19],[-69.82,1.71],[-67.87,1.69],[-66.88,1.25]]]},"properties":{"NAME_ZH":"哥伦比亚","NAME_EN":"Colombia","ADM0_A3":"COL"}},
{"type":"Feature","geometry":{"type":"Polygon","coordinates":[[[-77.35,8.67],[-78.06,9.25],[-79.57,9.61],[-81.44,8.79],[-82.55,9.57],[-82.97,8.23],[-81.72,8.11],[-80.89,7.22],[-80.48,8.09],[-79.12,9],[-78.62,8.72],[-77.88,7.22],[-77.24,7.94],[-77.35,8.67]]]},"properties":{"NAME_ZH":"巴拿马","NAME_EN":"Panama","ADM0_A3":"PAN"}},
{"type":"Feature","geometry":{"type":"Polygon","coordinates":[[[-82.55,9.57],[-83.66,10.94],[-85.71,11.09],[-85.8,10.13],[-83.63,9.05],[-82.97,8.23],[-82.55,9.57]]]},"properties":{"NAME_ZH":"哥斯达黎加","NAME_EN":"Costa Rica","ADM0_A3":"CRI"}},
{"type":"Feature","geometry":{"type":"Polygon","coordinates":[[[-83.66,10.94],[-83.55,13.13],[-83.15,15],[-84.45,14.62],[-84.92,14.79],[-85.8,13.84],[-86.76,13.75],[-87.32,12.98],[-86.53,11.81],[-85.71,11.09],[-83.66,10.94]]]},"properties":{"NAME_ZH":"尼加拉瓜","NAME_EN":"Nicaragua","ADM0_A3":"NIC"}},
{"type":"Feature","geometry":{"type":"Polygon","coordinates":[[[-83.15,15],[-84.37,15.84],[-86,16.01],[-86.44,15.78],[-88.23,15.73],[-89.15,15.07],[-89.35,14.42],[-87.72,13.79],[-87.79,13.38],[-87.32,12.98],[-86.76,13.75],[-85.8,13.84],[-84.92,14.79],[-84.45,14.62],[-83.15,15]]]},"properties":{"NAME_ZH":"洪都拉斯","NAME_EN":"Honduras","ADM0_A3":"HND"}},
{"type":"Feature","geometry":{"type":"Polygon","coordinates":[[[-89.35,14.42],[-90.1,13.74],[-88.48,13.16],[-87.79,13.38],[-87.72,13.79],[-89.35,14.42]]]},"properties":{"NAME_ZH":"萨尔瓦多","NAME_EN":"El Salvador","ADM0_A3":"SLV"}},
{"type":"Feature","geometry":{"type":"Polygon","coordinates":[[[-92.23,14.54],[-91.23,13.93],[-90.1,13.74],[-89.35,14.42],[-89.15,15.07],[-88.23,15.73],[-88.93,15.89],[-89.14,17.81],[-91,17.82],[-90.46,16.07],[-91.75,16.07],[-92.23,14.54]]]},"properties":{"NAME_ZH":"危地马拉","NAME_EN":"Guatemala","ADM0_A3":"GTM"}},
{"type":"Feature","geometry":{"type":"Polygon","coordinates":[[[-89.14,17.81],[-88.93,15.89],[-88.36,16.53],[-88.3,18.5],[-89.14,17.81]]]},"properties":{"NAME_ZH":"伯利兹","NAME_EN":"Belize","ADM0_A3":"BLZ"}},
{"type":"Feature","geometry":{"type":"Polygon","coordinates":[[[-60.73,5.2],[-61.41,5.96],[-61.16,6.7],[-60.3,7.04],[-60.55,7.78],[-59.76,8.37],[-60.67,8.58],[-60.83,9.38],[-62.73,10.42],[-64.32,10.64],[-64.89,10.08],[-66.23,10.65],[-68.19,10.55],[-68.88,11.44],[-70.16,11.38],[-71.4,10.97],[-71.33,11.78],[-71.97,11.61],[-72.91,10.45],[-73.3,9.15],[-72.79,9.09],[-71.96,6.99],[-70.09,6.96],[-69.39,6.1],[-67.34,6.1],[-67.82,4.5],[-67.3,3.32],[-66.88,1.25],[-66.33,0.72],[-64.2,1.49],[-64.37,3.8],[-62.8,4.01],[-60.97,4.54],[-60.73,5.2]]]},"properties":{"NAME_ZH":"委内瑞拉","NAME_EN":"Venezuela","ADM0_A3":"VEN"}},
{"type":"Feature","geometry":{"type":"Polygon","coordinates":[[[-56.54,1.9],[-58.04,4.06],[-57.31,5.07],[-57.15,5.97],[-59.1,8],[-59.76,8.37],[-60.55,7.78],[-60.3,7.04],[-61.16,6.7],[-61.41,5.96],[-60.73,5.2],[-59.54,3.96],[-59.97,2.76],[-59.65,1.79],[-59.03,1.32],[-56.54,1.9]]]},"properties":{"NAME_ZH":"圭亚那","NAME_EN":"Guyana","ADM0_A3":"GUY"}},
{"type":"Feature","geometry":{"type":"Polygon","coordinates":[[[-54.52,2.31],[-54.01,3.62],[-54.48,4.9],[-53.96,5.76],[-55.03,6.03],[-55.95,5.77],[-57.15,5.97],[-57.31,5.07],[-58.04,4.06],[-56.54,1.9],[-55.97,2.51],[-54.52,2.31]]]},"properties":{"NAME_ZH":"苏里南","NAME_EN":"Suriname","ADM0_A3":"SUR"}},
{"type":"Feature","geometry":{"type":"MultiPolygon","coordinates":[[[[-51.66,4.16],[-52.88,5.41],[-53.96,5.76],[-54.48,4.9],[-54.01,3.62],[-54.52,2.31],[-52.94,2.12],[-51.66,4.16]]],[[[6.19,49.46],[5.67,49.53],[4.29,49.91],[2.51,51.15],[1.34,50.13],[-0.99,49.35],[-1.62,48.64],[-3.3,48.9],[-4.59,48.68],[-4.49,47.95],[-2.96,47.57],[-1.19,46.01],[-1.38,44.02],[-1.9,43.42],[-1.5,43.03],[1.83,42.34],[2.99,42.47],[3.1,43.08],[4.56,43.4],[6.53,43.13],[7.44,43.69],[6.75,45.03],[6.84,45.99],[6.04,46.73],[7.47,47.62],[8.1,49.02],[6.19,49.46]]]]},"properties":{"NAME_ZH":"法国","NAME_EN":"France","ADM0_A3":"FRA"}},
{"type":"Feature","geometry":{"type":"Polygon","coordinates":[[[-75.37,-0.15],[-76.29,0.42],[-77.42,0.4],[-78.86,1.38],[-80.09,0.77],[-80.58,-0.91],[-80.93,-1.06],[-80.3,-3.4],[-80.44,-4.43],[-78.64,-4.55],[-77.84,-3],[-76.64,-2.61],[-75.54,-1.56],[-75.37,-0.15]]]},"properties":{"NAME_ZH":"厄瓜多尔","NAME_EN":"Ecuador","ADM0_A3":"ECU"}},
{"type":"Feature","geometry":{"type":"Polygon","coordinates":[[[-66.28,18.51],[-67.1,18.52],[-67.18,17.95],[-65.85,17.98],[-66.28,18.51]]]},"properties":{"NAME_ZH":"波多黎各","NAME_EN":"Puerto Rico","ADM0_A3":"PRI"}},
{"type":"Feature","geometry":{"type":"Polygon","coordinates":[[[-77.57,18.49],[-77.21,17.7],[-76.37,18.16],[-77.57,18.49]]]},"properties":{"NAME_ZH":"牙买加","NAME_EN":"Jamaica","ADM0_A3":"JAM"}},
{"type":"Feature","geometry":{"type":"Polygon","coordinates":[[[-82.27,23.19],[-84.23,22.57],[-83.49,22.17],[-82.78,22.69],[-81.82,22.19],[-78.72,21.6],[-77.76,19.86],[-75.63,19.87],[-74.18,20.28],[-75.6,21.02],[-76.52,21.21],[-78.35,22.51],[-79.28,22.4],[-80.62,23.11],[-82.27,23.19]]]},"properties":{"NAME_ZH":"古巴","NAME_EN":"Cuba","ADM0_A3":"CUB"}},
{"type":"Feature","geometry":{"type":"Polygon","coordinates":[[[31.19,-22.25],[32.24,-21.12],[32.77,-19.72],[32.85,-16.71],[30.27,-15.51],[29.52,-15.64],[27.04,-17.94],[25.26,-17.74],[26.16,-19.29],[27.3,-20.39],[28.02,-21.49],[29.43,-22.09],[31.19,-22.25]]]},"properties":{"NAME_ZH":"津巴布韦","NAME_EN":"Zimbabwe","ADM0_A3":"ZWE"}},
{"type":"Feature","geometry":{"type":"Polygon","coordinates":[[[29.43,-22.09],[28.02,-21.49],[27.3,-20.39],[26.16,-19.29],[25.26,-17.74],[25.08,-17.66],[23.58,-18.28],[23.2,-17.87],[20.91,-18.25],[20.88,-21.81],[19.9,-21.85],[19.9,-24.77],[20.76,-25.87],[20.89,-26.83],[21.61,-26.73],[23.31,-25.27],[24.21,-25.67],[25.66,-25.49],[27.12,-23.57],[28.02,-22.83],[29.43,-22.09]]]},"properties":{"NAME_ZH":"博茨瓦纳","NAME_EN":"Botswana","ADM0_A3":"BWA"}},
{"type":"Feature","geometry":{"type":"Polygon","coordinates":[[[19.9,-24.77],[19.9,-21.85],[20.88,-21.81],[20.91,-18.25],[23.2,-17.87],[23.58,-18.28],[25.08,-17.66],[24.03,-17.3],[23.22,-17.52],[21.38,-17.93],[18.96,-17.79],[18.26,-17.31],[14.21,-17.35],[12.81,-16.94],[11.73,-17.3],[11.79,-18.07],[12.61,-19.05],[13.35,-20.87],[14.26,-22.11],[14.41,-23.85],[15.21,-27.09],[16.34,-28.58],[18.46,-29.05],[19.89,-28.46],[19.9,-24.77]]]},"properties":{"NAME_ZH":"纳米比亚","NAME_EN":"Namibia","ADM0_A3":"NAM"}},
{"type":"Feature","geometry":{"type":"Polygon","coordinates":[[[-16.71,13.59],[-15.62,13.62],[-15.93,13.13],[-16.84,13.15],[-16.68,12.38],[-15.55,12.63],[-13.7,12.59],[-12.5,12.33],[-11.51,12.44],[-12.17,14.62],[-13.44,16.04],[-14.58,16.6],[-16.46,16.14],[-17.19,14.92],[-16.71,13.59]]]},"properties":{"NAME_ZH":"塞内加尔","NAME_EN":"Senegal","ADM0_A3":"SEN"}},
{"type":"Feature","geometry":{"type":"Polygon","coordinates":[[[-11.51,12.44],[-10.17,11.84],[-9.13,12.31],[-8.38,11.39],[-8.03,10.21],[-6.05,10.1],[-5.4,10.37],[-5.22,11.71],[-4.43,12.54],[-4.28,13.23],[-3.52,13.34],[-2,14.56],[-0.52,15.12],[0.37,14.93],[1.39,15.32],[3.64,15.57],[4.27,16.85],[4.27,19.16],[3.16,19.06],[3.15,19.69],[-1.55,22.79],[-4.92,24.97],[-6.45,24.96],[-5.97,20.64],[-5.49,16.33],[-5.54,15.5],[-9.55,15.49],[-10.65,15.13],[-11.67,15.39],[-12.17,14.62],[-11.51,12.44]]]},"properties":{"NAME_ZH":"马里","NAME_EN":"Mali","ADM0_A3":"MLI"}},
{"type":"Feature","geometry":{"type":"Polygon","coordinates":[[[-17.06,21],[-16.28,20.09],[-16.15,18.11],[-16.46,16.14],[-14.58,16.6],[-13.44,16.04],[-12.17,14.62],[-11.67,15.39],[-10.65,15.13],[-9.55,15.49],[-5.54,15.5],[-5.49,16.33],[-5.97,20.64],[-6.45,24.96],[-4.92,24.97],[-8.68,27.4],[-8.69,25.88],[-11.97,25.93],[-11.94,23.37],[-13.12,22.77],[-12.93,21.33],[-16.85,21.33],[-17.06,21]]]},"properties":{"NAME_ZH":"毛里塔尼亚","NAME_EN":"Mauritania","ADM0_A3":"MRT"}},
{"type":"Feature","geometry":{"type":"Polygon","coordinates":[[[2.69,6.26],[2.72,8.51],[3.71,10.06],[3.61,11.66],[2.85,12.24],[2.15,11.94],[0.9,11],[0.77,10.47],[1.66,9.13],[1.62,6.83],[1.87,6.14],[2.69,6.26]]]},"properties":{"NAME_ZH":"贝宁","NAME_EN":"Benin","ADM0_A3":"BEN"}},
{"type":"Feature","geometry":{"type":"Polygon","coordinates":[[[14.85,22.86],[14.14,22.49],[13.58,23.04],[12,23.47],[8.57,21.57],[5.68,19.6],[4.27,19.16],[4.27,16.85],[3.64,15.57],[1.39,15.32],[0.37,14.93],[0.43,13.99],[1.02,12.85],[2.18,12.63],[2.15,11.94],[2.85,12.24],[3.61,11.66],[3.68,12.55],[4.37,13.75],[5.44,13.87],[6.82,13.12],[7.8,13.34],[9.01,12.83],[10.11,13.28],[11.53,13.33],[12.3,13.04],[13.32,13.56],[14.18,12.48],[14.5,12.86],[13.54,14.37],[13.97,15.68],[15.25,16.63],[15.3,17.93],[15.9,20.39],[15.1,21.31],[14.85,22.86]]]},"properties":{"NAME_ZH":"尼日尔","NAME_EN":"Niger","ADM0_A3":"NER"}},
{"type":"Feature","geometry":{"type":"Polygon","coordinates":[[[2.69,6.26],[4.33,6.27],[5.03,5.61],[5.9,4.26],[6.7,4.24],[8.5,4.77],[9.23,6.44],[10.12,7.04],[11.06,6.64],[11.75,6.98],[12.22,8.31],[12.75,8.72],[13.57,10.8],[14.42,11.57],[14.18,12.48],[13.32,13.56],[12.3,13.04],[11.53,13.33],[10.11,13.28],[9.01,12.83],[7.8,13.34],[6.82,13.12],[5.44,13.87],[4.37,13.75],[3.68,12.55],[3.61,11.66],[3.71,10.06],[2.72,8.51],[2.69,6.26]]]},"properties":{"NAME_ZH":"尼日利亚","NAME_EN":"Nigeria","ADM0_A3":"NGA"}},
{"type":"Feature","geometry":{"type":"Polygon","coordinates":[[[14.5,12.86],[14.18,12.48],[14.42,11.57],[13.57,10.8],[12.75,8.72],[12.22,8.31],[11.75,6.98],[11.06,6.64],[10.12,7.04],[9.23,6.44],[8.5,4.77],[8.95,3.9],[9.8,3.07],[9.65,2.28],[11.28,2.26],[13.08,2.27],[14.34,2.23],[15.94,1.73],[16.01,2.27],[14.48,4.73],[14.54,6.23],[15.28,7.42],[14.98,8.8],[13.95,9.55],[14.17,10.02],[15.47,9.98],[14.92,10.89],[14.89,12.22],[14.5,12.86]]]},"properties":{"NAME_ZH":"喀麦隆","NAME_EN":"Cameroon","ADM0_A3":"CMR"}},
{"type":"Feature","geometry":{"type":"Polygon","coordinates":[[[0.9,11],[0.02,11.02],[0.37,10.19],[0.49,7.41],[1.06,5.93],[1.87,6.14],[1.62,6.83],[1.66,9.13],[0.77,10.47],[0.9,11]]]},"properties":{"NAME_ZH":"多哥","NAME_EN":"Togo","ADM0_A3":"TGO"}},
{"type":"Feature","geometry":{"type":"Polygon","coordinates":[[[0.02,11.02],[-2.94,10.96],[-2.83,9.64],[-2.56,8.22],[-3.24,6.25],[-2.86,4.99],[-1.96,4.71],[1.06,5.93],[0.49,7.41],[0.37,10.19],[0.02,11.02]]]},"properties":{"NAME_ZH":"加纳","NAME_EN":"Ghana","ADM0_A3":"GHA"}},
{"type":"Feature","geometry":{"type":"Polygon","coordinates":[[[-8.03,10.21],[-8.31,9.79],[-7.83,8.58],[-8.44,7.69],[-8.6,6.47],[-7.57,5.71],[-7.71,4.36],[-5.83,4.99],[-4.01,5.18],[-2.86,4.99],[-3.24,6.25],[-2.56,8.22],[-2.83,9.64],[-3.51,9.9],[-4.33,9.61],[-5.4,10.37],[-6.05,10.1],[-8.03,10.21]]]},"properties":{"NAME_ZH":"科特迪瓦","NAME_EN":"Ivory Coast","ADM0_A3":"CIV"}},
{"type":"Feature","geometry":{"type":"Polygon","coordinates":[[[-13.7,12.59],[-13.74,11.81],[-15.13,11.04],[-14.58,10.21],[-13.25,8.9],[-12.43,9.84],[-11.12,10.05],[-10.23,8.41],[-9.76,8.54],[-8.93,7.31],[-8.44,7.69],[-7.83,8.58],[-8.31,9.79],[-8.03,10.21],[-8.38,11.39],[-9.13,12.31],[-10.17,11.84],[-11.51,12.44],[-12.5,12.33],[-13.7,12.59]]]},"properties":{"NAME_ZH":"几内亚","NAME_EN":"Guinea","ADM0_A3":"GIN"}},
{"type":"Feature","geometry":{"type":"Polygon","coordinates":[[[-16.68,12.38],[-16.09,11.52],[-15.13,11.04],[-13.74,11.81],[-13.7,12.59],[-15.55,12.63],[-16.68,12.38]]]},"properties":{"NAME_ZH":"几内亚比绍","NAME_EN":"Guinea-Bissau","ADM0_A3":"GNB"}},
{"type":"Feature","geometry":{"type":"Polygon","coordinates":[[[-8.44,7.69],[-8.93,7.31],[-9.76,8.54],[-10.23,8.41],[-11.44,6.79],[-9,4.83],[-7.71,4.36],[-7.57,5.71],[-8.6,6.47],[-8.44,7.69]]]},"properties":{"NAME_ZH":"利比里亚","NAME_EN":"Liberia","ADM0_A3":"LBR"}},
{"type":"Feature","geometry":{"type":"Polygon","coordinates":[[[-13.25,8.9],[-12.95,7.8],[-11.44,6.79],[-10.23,8.41],[-11.12,10.05],[-12.43,9.84],[-13.25,8.9]]]},"properties":{"NAME_ZH":"塞拉利昂","NAME_EN":"Sierra Leone","ADM0_A3":"SLE"}},
{"type":"Feature","geometry":{"type":"Polygon","coordinates":[[[-5.4,10.37],[-4.33,9.61],[-3.51,9.9],[-2.83,9.64],[-2.94,10.96],[0.02,11.02],[0.9,11],[2.15,11.94],[2.18,12.63],[1.02,12.85],[0.43,13.99],[0.37,14.93],[-0.52,15.12],[-2,14.56],[-3.52,13.34],[-4.28,13.23],[-4.43,12.54],[-5.22,11.71],[-5.4,10.37]]]},"properties":{"NAME_ZH":"布基纳法索","NAME_EN":"Burkina Faso","ADM0_A3":"BFA"}},
{"type":"Feature","geometry":{"type":"Polygon","coordinates":[[[27.37,5.23],[24.57,8.23],[23.46,8.95],[23.55,10.09],[22.86,11.14],[21.72,10.57],[21,9.48],[20.06,9.01],[19.09,9.07],[17.96,7.89],[16.71,7.51],[15.28,7.42],[14.54,6.23],[14.48,4.73],[16.01,2.27],[17.13,3.73],[18.45,3.5],[18.54,4.2],[19.47,5.03],[20.93,4.32],[22.41,4.03],[24.41,5.11],[27.37,5.23]]]},"properties":{"NAME_ZH":"中非共和国","NAME_EN":"Central African Republic","ADM0_A3":"CAF"}},
{"type":"Feature","geometry":{"type":"Polygon","coordinates":[[[18.45,3.5],[17.13,3.73],[16.01,2.27],[15.94,1.73],[14.34,2.23],[13.08,2.27],[13.28,1.31],[14.28,1.2],[13.84,0.04],[14.43,-1.33],[13.99,-2.47],[12.5,-2.39],[11.48,-2.77],[11.86,-3.43],[11.09,-3.98],[11.91,-5.04],[13,-4.78],[14.14,-4.51],[14.58,-4.97],[16.01,-3.54],[15.97,-2.71],[16.41,-1.74],[17.52,-0.74],[17.83,0.29],[17.9,1.74],[18.45,3.5]]]},"properties":{"NAME_ZH":"刚果共和国","NAME_EN":"Republic of the Congo","ADM0_A3":"COG"}},
{"type":"Feature","geometry":{"type":"Polygon","coordinates":[[[11.28,2.26],[11.29,1.06],[9.49,1.01],[8.8,-1.11],[9.41,-2.14],[11.09,-3.98],[11.86,-3.43],[11.48,-2.77],[12.5,-2.39],[13.99,-2.47],[14.43,-1.33],[13.84,0.04],[14.28,1.2],[13.28,1.31],[13.08,2.27],[11.28,2.26]]]},"properties":{"NAME_ZH":"加蓬","NAME_EN":"Gabon","ADM0_A3":"GAB"}},
{"type":"Feature","geometry":{"type":"Polygon","coordinates":[[[9.65,2.28],[9.49,1.01],[11.29,1.06],[11.28,2.26],[9.65,2.28]]]},"properties":{"NAME_ZH":"赤道几内亚","NAME_EN":"Equatorial Guinea","ADM0_A3":"GNQ"}},
{"type":"Feature","geometry":{"type":"Polygon","coordinates":[[[30.74,-8.34],[28.73,-8.53],[28.37,-11.79],[29.34,-12.36],[28.93,-13.25],[28.16,-12.27],[25.75,-11.78],[25.42,-11.33],[23.91,-10.93],[24.02,-12.91],[21.93,-12.9],[21.89,-16.08],[23.22,-17.52],[24.03,-17.3],[25.08,-17.66],[25.26,-17.74],[27.04,-17.94],[29.52,-15.64],[30.27,-15.51],[30.18,-14.8],[33.21,-13.97],[32.69,-13.71],[33.31,-12.44],[33.11,-11.61],[33.49,-10.53],[32.76,-9.23],[30.74,-8.34]]]},"properties":{"NAME_ZH":"赞比亚","NAME_EN":"Zambia","ADM0_A3":"ZMB"}},
{"type":"Feature","geometry":{"type":"Polygon","coordinates":[[[32.76,-9.23],[33.49,-10.53],[33.11,-11.61],[33.31,-12.44],[32.69,-13.71],[33.21,-13.97],[34.46,-14.61],[34.38,-16.18],[35.03,-16.8],[35.77,-15.9],[35.69,-14.61],[34.56,-13.58],[34.28,-12.28],[34.56,-11.52],[34.28,-10.16],[33.74,-9.42],[32.76,-9.23]]]},"properties":{"NAME_ZH":"马拉维","NAME_EN":"Malawi","ADM0_A3":"MWI"}},
{"type":"Feature","geometry":{"type":"Polygon","coordinates":[[[34.56,-11.52],[34.28,-12.28],[34.56,-13.58],[35.69,-14.61],[35.77,-15.9],[35.03,-16.8],[34.38,-16.18],[34.46,-14.61],[33.21,-13.97],[30.18,-14.8],[30.27,-15.51],[32.85,-16.71],[32.77,-19.72],[32.24,-21.12],[31.19,-22.25],[31.93,-24.37],[31.84,-25.84],[32.07,-26.73],[32.83,-26.74],[32.57,-25.73],[35.46,-24.12],[35.56,-22.09],[34.7,-20.5],[34.79,-19.78],[37.41,-17.59],[39.45,-16.72],[40.09,-16.1],[40.78,-14.69],[40.6,-14.2],[40.48,-10.77],[40.32,-10.32],[39.52,-10.9],[36.51,-11.72],[34.56,-11.52]]]},"properties":{"NAME_ZH":"莫桑比克","NAME_EN":"Mozambique","ADM0_A3":"MOZ"}},
{"type":"Feature","geometry":{"type":"Polygon","coordinates":[[[32.07,-26.73],[31.84,-25.84],[31.04,-25.73],[30.69,-26.74],[31.28,-27.29],[32.07,-26.73]]]},"properties":{"NAME_ZH":"斯威士兰","NAME_EN":"Eswatini","ADM0_A3":"SWZ"}},
{"type":"Feature","geometry":{"type":"MultiPolygon","coordinates":[[[[13,-4.78],[11.91,-5.04],[12.18,-5.79],[13,-4.78]]],[[[12.32,-6.1],[13.24,-8.56],[12.88,-9.17],[13.69,-10.73],[13.63,-12.04],[12.74,-13.14],[11.78,-15.79],[11.73,-17.3],[12.81,-16.94],[14.21,-17.35],[18.26,-17.31],[18.96,-17.79],[21.38,-17.93],[23.22,-17.52],[21.89,-16.08],[21.93,-12.9],[24.02,-12.91],[23.91,-10.93],[22.16,-11.08],[22.21,-9.89],[21.88,-9.52],[21.73,-7.29],[19.42,-7.16],[19.02,-7.99],[17.47,-8.07],[16.86,-7.22],[16.33,-5.88],[13.38,-5.86],[12.32,-6.1]]]]},"properties":{"NAME_ZH":"安哥拉","NAME_EN":"Angola","ADM0_A3":"AGO"}},
{"type":"Feature","geometry":{"type":"Polygon","coordinates":[[[30.47,-2.41],[29.02,-2.84],[29.34,-4.5],[29.75,-4.45],[30.75,-3.36],[30.47,-2.41]]]},"properties":{"NAME_ZH":"布隆迪","NAME_EN":"Burundi","ADM0_A3":"BDI"}},
{"type":"Feature","geometry":{"type":"Polygon","coordinates":[[[35.72,32.71],[35.82,33.28],[35.13,33.09],[34.27,31.22],[34.82,29.76],[34.92,29.5],[35.4,31.49],[34.93,31.35],[35.18,32.53],[35.55,32.39],[35.72,32.71]]]},"properties":{"NAME_ZH":"以色列","NAME_EN":"Israel","ADM0_A3":"ISR"}},
{"type":"Feature","geometry":{"type":"Polygon","coordinates":[[[35.82,33.28],[36.61,34.2],[36,34.64],[35.13,33.09],[35.82,33.28]]]},"properties":{"NAME_ZH":"黎巴嫩","NAME_EN":"Lebanon","ADM0_A3":"LBN"}},
{"type":"Feature","geometry":{"type":"Polygon","coordinates":[[[49.54,-12.47],[47.71,-14.59],[46.31,-15.78],[44.45,-16.22],[43.96,-17.41],[44.46,-19.44],[44.37,-20.07],[43.43,-21.34],[43.25,-22.06],[44.04,-24.99],[45.41,-25.6],[47.1,-24.94],[48.55,-20.5],[49.44,-17.95],[49.5,-17.11],[50.48,-15.23],[50.06,-13.56],[49.54,-12.47]]]},"properties":{"NAME_ZH":"马达加斯加","NAME_EN":"Madagascar","ADM0_A3":"MDG"}},
{"type":"Feature","geometry":{"type":"Polygon","coordinates":[[[35.4,31.49],[35.55,32.39],[35.18,32.53],[34.93,31.35],[35.4,31.49]]]},"properties":{"NAME_ZH":"巴勒斯坦","NAME_EN":"Palestine","ADM0_A3":"PSX"}},
{"type":"Feature","geometry":{"type":"Polygon","coordinates":[[[-16.71,13.59],[-16.84,13.15],[-15.93,13.13],[-15.62,13.62],[-16.71,13.59]]]},"properties":{"NAME_ZH":"冈比亚","NAME_EN":"The Gambia","ADM0_A3":"GMB"}},
{"type":"Feature","geometry":{"type":"Polygon","coordinates":[[[9.48,30.31],[9.95,31.38],[11.43,32.37],[11.49,33.14],[10.15,34.33],[10.81,34.83],[10.94,35.7],[9.51,37.35],[8.42,36.95],[8.14,34.66],[7.52,34.1],[7.61,33.34],[9.06,32.1],[9.48,30.31]]]},"properties":{"NAME_ZH":"突尼斯","NAME_EN":"Tunisia","ADM0_A3":"TUN"}},
{"type":"Feature","geometry":{"type":"Polygon","coordinates":[[[-8.68,27.4],[-4.92,24.97],[-1.55,22.79],[3.15,19.69],[3.16,19.06],[4.27,19.16],[5.68,19.6],[8.57,21.57],[12,23.47],[10.77,24.56],[10.3,24.38],[9.32,26.09],[9.72,26.51],[9.86,28.96],[9.48,30.31],[9.06,32.1],[7.61,33.34],[7.52,34.1],[8.14,34.66],[8.42,36.95],[6.26,37.11],[4.82,36.87],[1.47,36.61],[-2.17,35.17],[-1.79,34.53],[-1.31,32.26],[-3.65,31.64],[-3.69,30.9],[-5.24,30],[-7.06,29.58],[-8.67,28.84],[-8.67,27.66],[-8.68,27.4]]]},"properties":{"NAME_ZH":"阿尔及利亚","NAME_EN":"Algeria","ADM0_A3":"DZA"}},
{"type":"Feature","geometry":{"type":"Polygon","coordinates":[[[35.55,32.39],[35.4,31.49],[34.92,29.5],[34.96,29.36],[36.07,29.2],[38,30.51],[37,31.51],[39.2,32.16],[38.79,33.38],[36.83,32.31],[35.72,32.71],[35.55,32.39]]]},"properties":{"NAME_ZH":"约旦","NAME_EN":"Jordan","ADM0_A3":"JOR"}},
{"type":"Feature","geometry":{"type":"Polygon","coordinates":[[[51.58,24.25],[52,23],[55.01,22.5],[55.21,22.71],[55.8,24.27],[56.4,24.92],[56.26,25.71],[56.07,26.06],[54.01,24.12],[51.58,24.25]]]},"properties":{"NAME_ZH":"阿拉伯联合酋长国","NAME_EN":"United Arab Emirates","ADM0_A3":"ARE"}},
{"type":"Feature","geometry":{"type":"Polygon","coordinates":[[[50.81,24.75],[51.39,24.63],[51.59,25.8],[51.01,26.01],[50.81,24.75]]]},"properties":{"NAME_ZH":"卡塔尔","NAME_EN":"Qatar","ADM0_A3":"QAT"}},
{"type":"Feature","geometry":{"type":"Polygon","coordinates":[[[47.97,29.98],[47.3,30.06],[46.57,29.1],[48.42,28.55],[47.97,29.98]]]},"properties":{"NAME_ZH":"科威特","NAME_EN":"Kuwait","ADM0_A3":"KWT"}},
{"type":"Feature","geometry":{"type":"Polygon","coordinates":[[[39.2,32.16],[40.4,31.89],[41.89,31.19],[44.71,29.18],[46.57,29.1],[47.3,30.06],[47.97,29.98],[48.57,29.93],[47.69,30.98],[47.85,31.71],[47.33,32.47],[46.11,33.02],[45.42,33.97],[46.08,35.68],[45.42,35.98],[44.77,37.17],[42.35,37.23],[41.29,36.36],[41.01,34.42],[38.79,33.38],[39.2,32.16]]]},"properties":{"NAME_ZH":"伊拉克","NAME_EN":"Iraq","ADM0_A3":"IRQ"}},
{"type":"Feature","geometry":{"type":"Polygon","coordinates":[[[55.21,22.71],[55.67,22],[55,20],[52,19],[53.11,16.65],[55.27,17.23],[56.28,17.88],[56.61,18.57],[57.79,19.07],[57.67,19.74],[58.49,20.43],[59.81,22.31],[58.73,23.57],[57.4,23.88],[56.4,24.92],[55.8,24.27],[55.21,22.71]]]},"properties":{"NAME_ZH":"阿曼","NAME_EN":"Oman","ADM0_A3":"OMN"}},
{"type":"Feature","geometry":{"type":"Polygon","coordinates":[[[166.79,-15.67],[167.27,-15.74],[167.11,-14.93],[166.63,-14.63],[166.79,-15.67]]]},"properties":{"NAME_ZH":"瓦努阿图","NAME_EN":"Vanuatu","ADM0_A3":"VUT"}},
{"type":"Feature","geometry":{"type":"Polygon","coordinates":[[[102.58,12.19],[103.5,10.63],[104.33,10.49],[105.81,11.57],[107.49,12.34],[107.38,14.2],[106.5,14.57],[106.04,13.88],[105.22,14.27],[102.99,14.23],[102.35,13.39],[102.58,12.19]]]},"properties":{"NAME_ZH":"柬埔寨","NAME_EN":"Cambodia","ADM0_A3":"KHM"}},
{"type":"Feature","geometry":{"type":"Polygon","coordinates":[[[105.22,14.27],[105.59,15.57],[104.78,16.44],[104.72,17.43],[103.96,18.24],[103,17.96],[102.11,18.11],[101.06,17.51],[101.28,19.46],[100.61,19.51],[100.12,20.42],[98.96,19.75],[98.25,19.71],[97.8,18.63],[97.86,17.57],[98.9,16.18],[98.43,14.62],[99.1,13.83],[99.59,11.89],[98.55,9.93],[98.5,8.38],[100.09,6.46],[101.81,5.81],[102.14,6.22],[100.46,7.43],[99.87,9.21],[99.15,9.96],[100.02,12.31],[100.1,13.41],[100.98,13.41],[101.69,12.65],[102.58,12.19],[102.35,13.39],[102.99,14.23],[105.22,14.27]]]},"properties":{"NAME_ZH":"泰国","NAME_EN":"Thailand","ADM0_A3":"THA"}},
{"type":"Feature","geometry":{"type":"Polygon","coordinates":[[[107.38,14.2],[107.56,15.2],[105.09,18.67],[103.9,19.27],[104.82,19.89],[104.44,20.76],[103.2,20.77],[102.17,22.46],[101.18,21.44],[100.12,20.42],[100.61,19.51],[101.28,19.46],[101.06,17.51],[102.11,18.11],[103,17.96],[103.96,18.24],[104.72,17.43],[104.78,16.44],[105.59,15.57],[105.22,14.27],[106.04,13.88],[106.5,14.57],[107.38,14.2]]]},"properties":{"NAME_ZH":"老挝","NAME_EN":"Laos","ADM0_A3":"LAO"}},
{"type":"Feature","geometry":{"type":"Polygon","coordinates":[[[100.12,20.42],[101.18,21.44],[99.24,22.12],[98.66,24.06],[97.6,23.9],[97.72,25.08],[98.67,25.92],[98.68,27.51],[97.91,28.34],[97.33,28.26],[97.05,27.7],[95.12,26.57],[95.16,26],[94.11,23.85],[93.33,24.08],[93.17,22.28],[92.67,22.04],[92.37,20.67],[94.32,18.21],[94.53,17.28],[94.19,16.04],[95.37,15.71],[97.16,16.93],[97.6,16.1],[98.1,13.64],[98.51,13.12],[98.43,12.03],[98.76,11.44],[98.55,9.93],[99.59,11.89],[99.1,13.83],[98.43,14.62],[98.9,16.18],[97.86,17.57],[97.8,18.63],[98.25,19.71],[98.96,19.75],[100.12,20.42]]]},"properties":{"NAME_ZH":"缅甸","NAME_EN":"Myanmar","ADM0_A3":"MMR"}},
{"type":"Feature","geometry":{"type":"Polygon","coordinates":[[[104.33,10.49],[105.08,9.92],[104.8,9.24],[105.16,8.6],[107.22,10.36],[109.2,11.67],[109.34,13.43],[108.88,15.28],[107.36,16.7],[105.66,19.06],[106.72,20.7],[108.05,21.55],[107.04,21.81],[106.73,22.79],[105.33,23.35],[104.48,22.82],[102.17,22.46],[103.2,20.77],[104.44,20.76],[104.82,19.89],[103.9,19.27],[105.09,18.67],[107.56,15.2],[107.38,14.2],[107.49,12.34],[105.81,11.57],[104.33,10.49]]]},"properties":{"NAME_ZH":"越南","NAME_EN":"Vietnam","ADM0_A3":"VNM"}},
{"type":"Feature","geometry":{"type":"Polygon","coordinates":[[[130.64,42.4],[129.6,42.42],[126.87,41.82],[126.18,41.11],[124.27,39.93],[125.39,39.39],[124.71,38.11],[126.17,37.75],[128.35,38.61],[127.53,39.76],[129.71,40.88],[129.67,41.6],[130.78,42.22],[130.64,42.4]]]},"properties":{"NAME_ZH":"朝鲜民主主义人民共和国","NAME_EN":"North Korea","ADM0_A3":"PRK"}},
{"type":"Feature","geometry":{"type":"Polygon","coordinates":[[[126.17,37.75],[126.12,36.73],[126.56,35.68],[126.49,34.39],[129.09,35.08],[129.46,36.78],[128.35,38.61],[126.17,37.75]]]},"properties":{"NAME_ZH":"大韩民国","NAME_EN":"South Korea","ADM0_A3":"KOR"}},
{"type":"Feature","geometry":{"type":"Polygon","coordinates":[[[87.75,49.3],[88.85,48.07],[90.28,47.69],[90.97,46.89],[90.59,45.72],[90.95,45.29],[93.48,44.98],[95.31,44.24],[96.35,42.73],[99.52,42.52],[101.83,42.51],[103.31,41.91],[104.96,41.6],[106.13,42.13],[109.24,42.52],[110.41,42.87],[111.83,43.74],[111.35,44.46],[111.87,45.1],[113.46,44.81],[115.99,45.73],[117.42,46.67],[119.77,47.05],[118.06,48.07],[117.3,47.7],[115.49,48.14],[116.68,49.89],[115.49,49.81],[114.36,50.25],[112.9,49.54],[110.66,49.13],[108.48,49.28],[106.89,50.27],[105.89,50.41],[103.68,50.09],[102.26,50.51],[102.07,51.26],[98.86,52.05],[97.83,51.01],[98.23,50.42],[97.26,49.73],[94.82,50.01],[94.15,50.48],[92.23,50.8],[88.81,49.47],[87.75,49.3]]]},"properties":{"NAME_ZH":"蒙古国","NAME_EN":"Mongolia","ADM0_A3":"MNG"}},
{"type":"Feature","geometry":{"type":"Polygon","coordinates":[[[97.33,28.26],[96.12,29.45],[95.4,29.03],[94.57,29.28],[92.5,27.9],[91.7,27.77],[92.03,26.84],[89.74,26.72],[88.81,27.3],[88.12,27.88],[88.06,26.41],[85.25,26.73],[84.68,27.23],[83.3,27.36],[80.09,28.79],[81.11,30.18],[78.74,31.52],[78.46,32.62],[78.91,34.32],[77.84,35.49],[76.87,34.65],[75.76,34.5],[74.24,34.75],[73.75,34.32],[74.45,32.76],[75.26,32.27],[74.41,31.69],[74.42,30.98],[72.82,28.96],[71.78,27.91],[70.62,27.99],[69.51,26.94],[70.17,26.49],[71.04,24.36],[68.84,24.36],[68.18,23.69],[69.35,22.84],[69.16,22.09],[70.47,20.88],[71.18,20.76],[72.63,21.36],[72.82,19.21],[73.53,15.99],[74.44,14.62],[74.86,12.74],[75.75,11.31],[76.59,8.9],[77.54,7.97],[78.89,9.55],[79.86,10.36],[79.86,12.06],[80.29,13.01],[80.03,15.14],[80.32,15.9],[82.19,16.56],[82.19,17.02],[83.94,18.3],[85.06,19.48],[86.5,20.15],[87.03,20.74],[86.98,21.5],[88.89,21.69],[89.03,22.06],[88.08,24.5],[88.93,25.24],[88.21,25.77],[88.56,26.45],[89.83,25.97],[89.92,25.27],[92.38,24.98],[91.92,24.13],[92.67,22.04],[93.17,22.28],[93.33,24.08],[94.11,23.85],[95.16,26],[95.12,26.57],[97.05,27.7],[97.33,28.26]]]},"properties":{"NAME_ZH":"印度","NAME_EN":"India","ADM0_A3":"IND"}},
{"type":"Feature","geometry":{"type":"Polygon","coordinates":[[[92.67,22.04],[91.92,24.13],[92.38,24.98],[89.92,25.27],[89.83,25.97],[88.56,26.45],[88.21,25.77],[88.93,25.24],[88.08,24.5],[89.03,22.06],[90.27,21.84],[90.5,22.81],[91.42,22.77],[92.37,20.67],[92.67,22.04]]]},"properties":{"NAME_ZH":"孟加拉国","NAME_EN":"Bangladesh","ADM0_A3":"BGD"}},
{"type":"Feature","geometry":{"type":"Polygon","coordinates":[[[91.7,27.77],[90.02,28.3],[88.81,27.3],[89.74,26.72],[92.03,26.84],[91.7,27.77]]]},"properties":{"NAME_ZH":"不丹","NAME_EN":"Bhutan","ADM0_A3":"BTN"}},
{"type":"Feature","geometry":{"type":"Polygon","coordinates":[[[88.12,27.88],[85.82,28.2],[84.23,28.84],[82.33,30.12],[81.11,30.18],[80.09,28.79],[83.3,27.36],[84.68,27.23],[85.25,26.73],[88.06,26.41],[88.12,27.88]]]},"properties":{"NAME_ZH":"尼泊尔","NAME_EN":"Nepal","ADM0_A3":"NPL"}},
{"type":"Feature","geometry":{"type":"Polygon","coordinates":[[[77.84,35.49],[76.19,35.9],[75.16,37.13],[71.85,36.51],[71.26,36.07],[71.61,35.15],[70.88,33.99],[69.69,33.11],[68.93,31.62],[66.94,31.3],[66.38,30.74],[66.35,29.89],[65.05,29.47],[62.55,29.32],[60.87,29.83],[61.77,28.7],[62.73,28.26],[62.76,27.38],[63.32,26.76],[61.87,26.24],[61.5,25.08],[64.53,25.24],[66.37,25.43],[67.44,23.94],[68.18,23.69],[68.84,24.36],[71.04,24.36],[70.17,26.49],[69.51,26.94],[70.62,27.99],[71.78,27.91],[72.82,28.96],[74.42,30.98],[74.41,31.69],[75.26,32.27],[74.45,32.76],[73.75,34.32],[74.24,34.75],[75.76,34.5],[76.87,34.65],[77.84,35.49]]]},"properties":{"NAME_ZH":"巴基斯坦","NAME_EN":"Pakistan","ADM0_A3":"PAK"}},
{"type":"Feature","geometry":{"type":"Polygon","coordinates":[[[66.52,37.36],[64.75,37.11],[64.55,36.31],[62.23,35.27],[61.21,35.65],[60.53,33.68],[60.94,31.55],[61.78,30.74],[60.87,29.83],[62.55,29.32],[65.05,29.47],[66.35,29.89],[66.38,30.74],[66.94,31.3],[68.93,31.62],[69.69,33.11],[70.88,33.99],[71.61,35.15],[71.26,36.07],[71.85,36.51],[75.16,37.13],[74.98,37.42],[73.26,37.5],[71.84,36.74],[71.54,37.91],[70.81,38.49],[70.12,37.59],[67.83,37.14],[66.52,37.36]]]},"properties":{"NAME_ZH":"阿富汗","NAME_EN":"Afghanistan","ADM0_A3":"AFG"}},
{"type":"Feature","geometry":{"type":"Polygon","coordinates":[[[67.83,37.14],[70.12,37.59],[70.81,38.49],[71.54,37.91],[71.84,36.74],[73.26,37.5],[74.98,37.42],[74.86,38.38],[73.93,38.51],[73.68,39.43],[71.78,39.28],[70.55,39.6],[71.01,40.24],[70.67,40.96],[69.33,40.73],[68.18,38.9],[68.39,38.16],[67.83,37.14]]]},"properties":{"NAME_ZH":"塔吉克斯坦","NAME_EN":"Tajikistan","ADM0_A3":"TJK"}},
{"type":"Feature","geometry":{"type":"Polygon","coordinates":[[[70.96,42.27],[70.42,41.52],[71.87,41.39],[73.06,40.87],[71.77,40.15],[71.01,40.24],[70.55,39.6],[71.78,39.28],[73.68,39.43],[73.82,39.89],[75.47,40.56],[76.53,40.43],[76.9,41.07],[78.19,41.19],[80.26,42.35],[79.14,42.86],[76,42.99],[74.21,43.3],[73.49,42.5],[71.84,42.85],[70.96,42.27]]]},"properties":{"NAME_ZH":"吉尔吉斯斯坦","NAME_EN":"Kyrgyzstan","ADM0_A3":"KGZ"}},
{"type":"Feature","geometry":{"type":"Polygon","coordinates":[[[52.5,41.78],[53.72,42.12],[54.74,40.95],[52.69,40.03],[53.88,38.95],[53.92,37.2],[55.51,37.96],[57.33,38.03],[59.23,37.41],[61.21,35.65],[62.23,35.27],[64.55,36.31],[64.75,37.11],[66.52,37.36],[66.55,37.97],[64.17,38.89],[62.37,40.05],[61.88,41.08],[60.08,41.43],[59.98,42.22],[58.63,42.75],[55.97,41.31],[55.46,41.26],[54.08,42.32],[52.5,41.78]]]},"properties":{"NAME_ZH":"土库曼斯坦","NAME_EN":"Turkmenistan","ADM0_A3":"TKM"}},
{"type":"Feature","geometry":{"type":"Polygon","coordinates":[[[48.57,29.93],[48.94,30.32],[50.12,30.15],[51.52,27.87],[52.48,27.58],[53.49,26.81],[54.72,26.48],[56.49,27.14],[56.97,26.97],[57.4,25.74],[61.5,25.08],[61.87,26.24],[63.32,26.76],[62.76,27.38],[62.73,28.26],[61.77,28.7],[60.87,29.83],[61.78,30.74],[60.94,31.55],[60.53,33.68],[61.21,35.65],[59.23,37.41],[57.33,38.03],[55.51,37.96],[53.92,37.2],[52.26,36.7],[50.84,36.87],[49.2,37.58],[48.88,38.32],[47.69,39.51],[46.51,38.77],[46.14,38.74],[44.79,39.71],[44.11,39.43],[44.77,37.17],[45.42,35.98],[46.08,35.68],[45.42,33.97],[46.11,33.02],[47.33,32.47],[47.85,31.71],[47.69,30.98],[48.57,29.93]]]},"properties":{"NAME_ZH":"伊朗","NAME_EN":"Iran","ADM0_A3":"IRN"}},
{"type":"Feature","geometry":{"type":"Polygon","coordinates":[[[35.72,32.71],[36.83,32.31],[38.79,33.38],[41.01,34.42],[41.29,36.36],[42.35,37.23],[40.67,37.09],[39.52,36.72],[38.17,36.9],[37.07,36.62],[36.15,35.82],[36,34.64],[36.61,34.2],[35.82,33.28],[35.72,32.71]]]},"properties":{"NAME_ZH":"叙利亚","NAME_EN":"Syria","ADM0_A3":"SYR"}},
{"type":"Feature","geometry":{"type":"Polygon","coordinates":[[[46.51,38.77],[46.48,39.46],[44.97,41.25],[43.58,41.09],[43.66,40.25],[44.79,39.71],[46.14,38.74],[46.51,38.77]]]},"properties":{"NAME_ZH":"亚美尼亚","NAME_EN":"Armenia","ADM0_A3":"ARM"}},
{"type":"Feature","geometry":{"type":"Polygon","coordinates":[[[11.03,58.86],[12.94,55.36],[14.1,55.41],[14.67,56.2],[15.88,56.1],[16.83,58.72],[17.87,58.95],[18.79,60.08],[17.12,61.34],[17.85,62.75],[21.37,64.41],[22.18,65.72],[23.9,66.01],[23.54,67.94],[20.65,69.11],[16.77,68.01],[15.11,66.19],[11.93,63.13],[11.99,61.8],[12.63,61.29],[12.3,60.12],[11.03,58.86]]]},"properties":{"NAME_ZH":"瑞典","NAME_EN":"Sweden","ADM0_A3":"SWE"}},
{"type":"Feature","geometry":{"type":"Polygon","coordinates":[[[28.18,56.17],[26.49,55.62],[25.54,54.28],[23.48,53.91],[23.8,52.69],[23.53,51.58],[24.55,51.89],[29.25,51.37],[31.79,52.1],[31.73,53.79],[30.76,54.81],[30.87,55.55],[28.18,56.17]]]},"properties":{"NAME_ZH":"白俄罗斯","NAME_EN":"Belarus","ADM0_A3":"BLR"}},
{"type":"Feature","geometry":{"type":"Polygon","coordinates":[[[31.79,52.1],[29.25,51.37],[24.55,51.89],[23.53,51.58],[24.03,50.71],[22.52,49.48],[22.56,49.09],[22.09,48.42],[22.71,47.88],[24.87,47.74],[26.62,48.22],[27.52,48.47],[29.12,47.85],[29.76,46.35],[28.23,45.49],[29.6,45.29],[30.75,46.58],[33.44,45.97],[35.01,45.74],[34.96,46.27],[38.22,47.1],[38.77,47.83],[39.74,47.9],[40.07,49.6],[38.01,49.92],[35.36,50.58],[33.75,52.34],[31.79,52.1]]]},"properties":{"NAME_ZH":"乌克兰","NAME_EN":"Ukraine","ADM0_A3":"UKR"}},
{"type":"Feature","geometry":{"type":"Polygon","coordinates":[[[19.66,54.43],[17.62,54.85],[14.12,53.76],[14.07,52.98],[15.02,51.11],[17.55,50.36],[18.85,49.5],[19.83,49.22],[21.61,49.47],[22.56,49.09],[22.52,49.48],[24.03,50.71],[23.53,51.58],[23.8,52.69],[23.48,53.91],[22.73,54.33],[19.66,54.43]]]},"properties":{"NAME_ZH":"波兰","NAME_EN":"Poland","ADM0_A3":"POL"}},
{"type":"Feature","geometry":{"type":"Polygon","coordinates":[[[16.98,48.12],[16.96,48.6],[15.25,49.04],[13.6,48.88],[13.03,47.64],[9.59,47.53],[10.44,46.89],[12.15,47.12],[13.81,46.51],[16.2,46.85],[16.98,48.12]]]},"properties":{"NAME_ZH":"奥地利","NAME_EN":"Austria","ADM0_A3":"AUT"}},
{"type":"Feature","geometry":{"type":"Polygon","coordinates":[[[22.09,48.42],[20.8,48.62],[17.86,47.76],[16.98,48.12],[16.2,46.85],[16.56,46.5],[17.63,45.95],[18.83,45.91],[20.22,46.13],[21.02,46.32],[22.1,47.67],[22.71,47.88],[22.09,48.42]]]},"properties":{"NAME_ZH":"匈牙利","NAME_EN":"Hungary","ADM0_A3":"HUN"}},
{"type":"Feature","geometry":{"type":"Polygon","coordinates":[[[26.62,48.22],[28.13,46.81],[28.23,45.49],[29.76,46.35],[29.12,47.85],[27.52,48.47],[26.62,48.22]]]},"properties":{"NAME_ZH":"摩尔多瓦","NAME_EN":"Moldova","ADM0_A3":"MDA"}},
{"type":"Feature","geometry":{"type":"Polygon","coordinates":[[[28.23,45.49],[28.13,46.81],[26.62,48.22],[24.87,47.74],[22.71,47.88],[22.1,47.67],[21.02,46.32],[20.22,46.13],[21.56,44.77],[22.66,44.23],[22.94,43.82],[25.57,43.69],[27.24,44.18],[28.56,43.71],[28.84,44.91],[29.6,45.29],[28.23,45.49]]]},"properties":{"NAME_ZH":"罗马尼亚","NAME_EN":"Romania","ADM0_A3":"ROU"}},
{"type":"Feature","geometry":{"type":"Polygon","coordinates":[[[22.73,54.33],[23.48,53.91],[25.54,54.28],[26.49,55.62],[24.86,56.37],[22.2,56.34],[21.06,56.03],[21.27,55.19],[22.73,54.33]]]},"properties":{"NAME_ZH":"立陶宛","NAME_EN":"Lithuania","ADM0_A3":"LTU"}},
{"type":"Feature","geometry":{"type":"Polygon","coordinates":[[[27.29,57.47],[25.16,57.97],[24.31,57.79],[23.32,57.01],[21.58,57.41],[21.06,56.03],[22.2,56.34],[24.86,56.37],[26.49,55.62],[28.18,56.17],[27.29,57.47]]]},"properties":{"NAME_ZH":"拉脱维亚","NAME_EN":"Latvia","ADM0_A3":"LVA"}},
{"type":"Feature","geometry":{"type":"Polygon","coordinates":[[[27.98,59.48],[25.86,59.61],[23.34,59.19],[24.31,57.79],[25.16,57.97],[27.29,57.47],[27.98,59.48]]]},"properties":{"NAME_ZH":"爱沙尼亚","NAME_EN":"Estonia","ADM0_A3":"EST"}},
{"type":"Feature","geometry":{"type":"Polygon","coordinates":[[[7.47,47.62],[9.59,47.53],[13.03,47.64],[13.6,48.88],[12.52,49.55],[12.24,50.27],[15.02,51.11],[14.07,52.98],[14.12,53.76],[11.96,54.2],[9.92,54.98],[8.53,54.96],[8.8,54.02],[6.91,53.48],[7.09,53.14],[6.16,50.8],[6.04,50.13],[6.19,49.46],[8.1,49.02],[7.47,47.62]]]},"properties":{"NAME_ZH":"德国","NAME_EN":"Germany","ADM0_A3":"DEU"}},
{"type":"Feature","geometry":{"type":"Polygon","coordinates":[[[22.66,44.23],[22.99,43.21],[22.38,42.32],[22.95,41.34],[24.49,41.58],[25.2,41.23],[26.12,41.83],[28,42.01],[27.67,42.58],[28.56,43.71],[27.24,44.18],[25.57,43.69],[22.94,43.82],[22.66,44.23]]]},"properties":{"NAME_ZH":"保加利亚","NAME_EN":"Bulgaria","ADM0_A3":"BGR"}},
{"type":"Feature","geometry":{"type":"Polygon","coordinates":[[[22.95,41.34],[21.02,40.84],[20.15,39.62],[21.12,38.31],[21.67,36.84],[24.04,37.66],[24.03,38.22],[22.97,38.97],[22.85,39.66],[24.41,40.12],[24.93,40.95],[26.06,40.82],[26.12,41.83],[25.2,41.23],[24.49,41.58],[22.95,41.34]]]},"properties":{"NAME_ZH":"希腊","NAME_EN":"Greece","ADM0_A3":"GRC"}},
{"type":"Feature","geometry":{"type":"MultiPolygon","coordinates":[[[[44.77,37.17],[44.11,39.43],[44.79,39.71],[43.66,40.25],[43.58,41.09],[42.62,41.58],[41.55,41.54],[40.37,41.01],[38.35,40.95],[35.17,42.04],[33.51,42.02],[31.15,41.09],[29.24,41.22],[28.82,40.46],[27.28,40.42],[26.17,39.46],[26.8,38.99],[26.32,38.21],[27.64,36.66],[28.73,36.68],[29.7,36.14],[30.62,36.68],[31.7,36.64],[32.51,36.11],[34.03,36.22],[34.71,36.8],[35.55,36.57],[36.15,35.82],[37.07,36.62],[38.17,36.9],[39.52,36.72],[40.67,37.09],[42.35,37.23],[44.77,37.17]]],[[[26.12,41.83],[26.06,40.82],[26.36,40.15],[27.62,41],[28,42.01],[26.12,41.83]]]]},"properties":{"NAME_ZH":"土耳其","NAME_EN":"Turkey","ADM0_A3":"TUR"}},
{"type":"Feature","geometry":{"type":"Polygon","coordinates":[[[21.02,40.84],[20.59,41.86],[20.07,42.59],[19.37,41.88],[19.41,40.25],[20.15,39.62],[21.02,40.84]]]},"properties":{"NAME_ZH":"阿尔巴尼亚","NAME_EN":"Albania","ADM0_A3":"ALB"}},
{"type":"Feature","geometry":{"type":"Polygon","coordinates":[[[16.56,46.5],[15.33,45.45],[13.72,45.5],[14.9,45.08],[15.17,44.24],[16.02,43.51],[18.45,42.48],[18.56,42.65],[17.67,43.03],[15.75,44.82],[15.96,45.23],[19.01,44.86],[18.83,45.91],[17.63,45.95],[16.56,46.5]]]},"properties":{"NAME_ZH":"克罗地亚","NAME_EN":"Croatia","ADM0_A3":"HRV"}},
{"type":"Feature","geometry":{"type":"Polygon","coordinates":[[[6.84,45.99],[7.76,45.82],[10.44,46.89],[9.59,47.53],[7.47,47.62],[6.04,46.73],[6.84,45.99]]]},"properties":{"NAME_ZH":"瑞士","NAME_EN":"Switzerland","ADM0_A3":"CHE"}},
{"type":"Feature","geometry":{"type":"Polygon","coordinates":[[[6.19,49.46],[6.04,50.13],[5.67,49.53],[6.19,49.46]]]},"properties":{"NAME_ZH":"卢森堡","NAME_EN":"Luxembourg","ADM0_A3":"LUX"}},
{"type":"Feature","geometry":{"type":"Polygon","coordinates":[[[5.67,49.53],[6.04,50.13],[6.16,50.8],[4.97,51.48],[3.32,51.35],[2.51,51.15],[4.29,49.91],[5.67,49.53]]]},"properties":{"NAME_ZH":"比利时","NAME_EN":"Belgium","ADM0_A3":"BEL"}},
{"type":"Feature","geometry":{"type":"Polygon","coordinates":[[[6.91,53.48],[4.71,53.09],[3.32,51.35],[4.97,51.48],[6.16,50.8],[7.09,53.14],[6.91,53.48]]]},"properties":{"NAME_ZH":"荷兰","NAME_EN":"Netherlands","ADM0_A3":"NLD"}},
{"type":"Feature","geometry":{"type":"Polygon","coordinates":[[[-9.03,41.88],[-8.77,40.76],[-9.53,38.74],[-8.84,38.27],[-8.9,36.87],[-7.45,37.1],[-7.03,38.08],[-7.1,39.03],[-6.67,41.88],[-9.03,41.88]]]},"properties":{"NAME_ZH":"葡萄牙","NAME_EN":"Portugal","ADM0_A3":"PRT"}},
{"type":"Feature","geometry":{"type":"Polygon","coordinates":[[[-1.9,43.42],[-4.35,43.4],[-7.98,43.75],[-9.39,43.03],[-9.03,41.88],[-6.67,41.88],[-7.1,39.03],[-7.03,38.08],[-7.45,37.1],[-6.52,36.94],[-5.38,35.95],[-4.37,36.68],[-2.15,36.67],[-0.68,37.64],[0.11,38.74],[-0.28,39.31],[0.81,41.01],[2.09,41.23],[3.04,41.89],[2.99,42.47],[1.83,42.34],[-1.5,43.03],[-1.9,43.42]]]},"properties":{"NAME_ZH":"西班牙","NAME_EN":"Spain","ADM0_A3":"ESP"}},
{"type":"Feature","geometry":{"type":"Polygon","coordinates":[[[-6.2,53.87],[-7.57,54.06],[-7.57,55.13],[-9.69,53.88],[-9.17,52.86],[-9.98,51.82],[-8.56,51.67],[-6.79,52.26],[-6.03,53.15],[-6.2,53.87]]]},"properties":{"NAME_ZH":"爱尔兰","NAME_EN":"Ireland","ADM0_A3":"IRL"}},
{"type":"Feature","geometry":{"type":"Polygon","coordinates":[[[165.78,-21.08],[164.46,-20.12],[164.17,-20.44],[165.47,-21.68],[165.78,-21.08]]]},"properties":{"NAME_ZH":"新喀里多尼亚","NAME_EN":"New Caledonia","ADM0_A3":"NCL"}},
{"type":"Feature","geometry":{"type":"Polygon","coordinates":[[[159.64,-8.02],[158.36,-7.32],[158.59,-7.75],[159.92,-8.54],[159.64,-8.02]]]},"properties":{"NAME_ZH":"所罗门群岛","NAME_EN":"Solomon Islands","ADM0_A3":"SLB"}},
{"type":"Feature","geometry":{"type":"MultiPolygon","coordinates":[[[[176.89,-40.07],[177.21,-39.15],[177.97,-39.17],[178.52,-37.7],[176.76,-37.88],[175.34,-37.21],[174.33,-35.27],[173.05,-35.24],[174.7,-37.38],[174.57,-38.8],[173.82,-39.51],[176.01,-41.29],[176.89,-40.07]]],[[[169.67,-43.56],[168.3,-44.12],[167.05,-45.11],[166.68,-46.22],[169.33,-46.64],[170.62,-45.91],[171.45,-44.24],[172.31,-43.87],[174.25,-41.77],[172.1,-40.96],[171.13,-42.51],[169.67,-43.56]]]]},"properties":{"NAME_ZH":"新西兰","NAME_EN":"New Zealand","ADM0_A3":"NZL"}},
{"type":"Feature","geometry":{"type":"MultiPolygon","coordinates":[[[[147.69,-40.81],[146.36,-41.14],[144.72,-41.16],[146.05,-43.55],[146.87,-43.63],[148.36,-42.06],[148.29,-40.88],[147.69,-40.81]]],[[[126.15,-32.22],[127.1,-32.28],[129.54,-31.59],[131.33,-31.5],[134.27,-32.62],[135.99,-34.89],[136.37,-34.09],[137.89,-33.64],[137.35,-34.71],[138.12,-35.61],[139.57,-36.14],[139.99,-37.4],[140.64,-38.02],[143.61,-38.81],[144.49,-38.09],[146.32,-39.04],[148.3,-37.81],[150,-37.43],[150.08,-36.42],[151.71,-33.04],[152.45,-32.55],[152.89,-31.64],[153.57,-28.11],[153.09,-27.26],[152.86,-25.27],[150.9,-23.46],[150.73,-22.4],[149.68,-22.34],[148.85,-20.39],[146.39,-18.96],[146.16,-17.76],[145.64,-16.78],[145.37,-14.98],[144.56,-14.17],[143.92,-14.55],[143.52,-12.83],[142.87,-11.78],[142.52,-10.67],[141.69,-12.41],[141.52,-13.7],[141.7,-15.04],[140.88,-17.37],[140.22,-17.71],[139.26,-17.37],[135.43,-14.72],[136.95,-12.35],[136.49,-11.86],[135.3,-12.25],[133.55,-11.79],[132.58,-12.11],[131.22,-12.18],[130.62,-12.54],[129.41,-14.42],[128.36,-14.87],[127.07,-13.82],[125.69,-14.23],[123.82,-16.11],[123.01,-16.41],[122.31,-17.25],[122.24,-18.2],[120.86,-19.68],[119.25,-19.95],[117.44,-20.75],[116.71,-20.7],[114.65,-21.83],[113.84,-23.06],[113.39,-24.38],[113.44,-25.62],[114.17,-28.12],[115.04,-29.46],[115.16,-30.6],[115.8,-32.21],[115.55,-33.49],[115.03,-34.2],[116.63,-35.03],[118.02,-35.06],[119.89,-33.98],[121.3,-33.82],[123.66,-33.89],[124.22,-32.96],[126.15,-32.22]]]]},"properties":{"NAME_ZH":"澳大利亚","NAME_EN":"Australia","ADM0_A3":"AUS"}},
{"type":"Feature","geometry":{"type":"Polygon","coordinates":[[[81.79,7.52],[80.84,9.27],[80.15,9.82],[79.7,8.2],[79.87,6.76],[80.35,5.97],[81.64,6.48],[81.79,7.52]]]},"properties":{"NAME_ZH":"斯里兰卡","NAME_EN":"Sri Lanka","ADM0_A3":"LKA"}},
{"type":"Feature","geometry":{"type":"MultiPolygon","coordinates":[[[[109.48,18.2],[110.34,18.68],[111.01,19.7],[110.21,20.1],[108.63,19.37],[108.66,18.51],[109.48,18.2]]],[[[80.26,42.35],[78.19,41.19],[76.9,41.07],[76.53,40.43],[75.47,40.56],[73.82,39.89],[73.68,39.43],[73.93,38.51],[74.86,38.38],[74.98,37.42],[75.16,37.13],[76.19,35.9],[77.84,35.49],[78.91,34.32],[78.46,32.62],[78.74,31.52],[81.11,30.18],[82.33,30.12],[84.23,28.84],[85.82,28.2],[88.12,27.88],[88.81,27.3],[90.02,28.3],[91.7,27.77],[92.5,27.9],[94.57,29.28],[95.4,29.03],[96.12,29.45],[97.33,28.26],[97.91,28.34],[98.68,27.51],[98.67,25.92],[97.72,25.08],[97.6,23.9],[98.66,24.06],[99.24,22.12],[101.18,21.44],[102.17,22.46],[104.48,22.82],[105.33,23.35],[106.73,22.79],[107.04,21.81],[108.05,21.55],[109.86,21.4],[111.84,21.55],[114.15,22.22],[114.76,22.67],[115.89,22.78],[118.66,24.55],[119.59,25.74],[121.13,28.14],[121.68,28.23],[122.09,29.83],[121.26,30.68],[121.91,31.69],[120.62,33.38],[120.23,34.36],[119.15,34.91],[119.66,35.61],[121.1,36.65],[122.52,36.93],[122.36,37.45],[120.82,37.87],[119.7,37.16],[118.06,38.06],[117.53,38.74],[119.02,39.25],[119.64,39.9],[121.64,40.95],[122.17,40.42],[121.38,39.75],[122.13,39.17],[124.27,39.93],[126.18,41.11],[126.87,41.82],[129.6,42.42],[130.64,42.4],[131.14,42.93],[131.03,44.97],[131.88,45.32],[133.1,45.14],[134.11,47.21],[135.03,48.48],[132.51,47.79],[130.99,47.79],[130.58,48.73],[129.4,49.44],[127.66,49.76],[125.95,52.79],[123.57,53.46],[121,53.25],[120.74,51.96],[117.88,49.51],[116.68,49.89],[115.49,48.14],[117.3,47.7],[118.06,48.07],[119.77,47.05],[117.42,46.67],[115.99,45.73],[113.46,44.81],[111.87,45.1],[111.35,44.46],[111.83,43.74],[110.41,42.87],[109.24,42.52],[106.13,42.13],[104.96,41.6],[103.31,41.91],[101.83,42.51],[99.52,42.52],[96.35,42.73],[95.31,44.24],[93.48,44.98],[90.95,45.29],[90.59,45.72],[90.97,46.89],[90.28,47.69],[88.85,48.07],[87.75,49.3],[87.36,49.21],[85.77,48.46],[85.16,47],[83.18,47.33],[82.46,45.54],[79.97,44.92],[80.87,43.18],[80.26,42.35]]]]},"properties":{"NAME_ZH":"中华人民共和国","NAME_EN":"People's Republic of China","ADM0_A3":"CHN"}},
{"type":"Feature","geometry":{"type":"Polygon","coordinates":[[[121.78,24.39],[121.5,25.3],[120.11,23.56],[120.75,21.97],[121.78,24.39]]]},"properties":{"NAME_ZH":"中华民国","NAME_EN":"Taiwan","ADM0_A3":"TWN"}},
{"type":"Feature","geometry":{"type":"MultiPolygon","coordinates":[[[[7.44,43.69],[8.89,44.37],[10.2,43.92],[10.51,42.93],[12.11,41.7],[13.63,41.19],[15.41,40.05],[16.45,39.8],[17.52,40.88],[15.89,41.54],[14.03,42.76],[13.53,43.59],[12.59,44.09],[12.33,45.38],[13.94,45.59],[13.81,46.51],[12.15,47.12],[10.44,46.89],[7.76,45.82],[6.84,45.99],[6.75,45.03],[7.44,43.69]]],[[[14.76,38.14],[12.57,38.13],[12.43,37.61],[15.1,36.62],[14.76,38.14]]],[[[8.71,40.9],[8.43,39.17],[9.67,39.18],[9.81,40.5],[8.71,40.9]]]]},"properties":{"NAME_ZH":"意大利","NAME_EN":"Italy","ADM0_A3":"ITA"}},
{"type":"Feature","geometry":{"type":"Polygon","coordinates":[[[9.92,54.98],[10.25,56.89],[8.54,57.11],[8.09,56.54],[8.53,54.96],[9.92,54.98]]]},"properties":{"NAME_ZH":"丹麦","NAME_EN":"Denmark","ADM0_A3":"DNK"}},
{"type":"Feature","geometry":{"type":"MultiPolygon","coordinates":[[[[-6.2,53.87],[-5.66,54.55],[-7.57,55.13],[-7.57,54.06],[-6.2,53.87]]],[[[-3.09,53.4],[-4.58,53.5],[-5.27,51.99],[-3.62,50.23],[-0.79,50.77],[0.55,50.77],[1.68,52.74],[0.47,52.93],[-0.43,54.46],[-1.11,54.62],[-2.09,55.91],[-1.96,57.68],[-4.07,57.55],[-3.01,58.64],[-5.01,58.63],[-6.15,56.79],[-5.59,55.31],[-3.63,54.62],[-3.09,53.4]]]]},"properties":{"NAME_ZH":"英国","NAME_EN":"United Kingdom","ADM0_A3":"GBR"}},
{"type":"Feature","geometry":{"type":"Polygon","coordinates":[[[-14.51,66.46],[-20.58,65.73],[-22.13,66.41],[-23.65,66.26],[-23.96,64.89],[-22.76,63.96],[-18.66,63.5],[-14.91,64.36],[-13.61,65.13],[-14.51,66.46]]]},"properties":{"NAME_ZH":"冰岛","NAME_EN":"Iceland","ADM0_A3":"ISL"}},
{"type":"Feature","geometry":{"type":"Polygon","coordinates":[[[46.4,41.86],[46.64,41.18],[44.97,41.25],[46.48,39.46],[46.51,38.77],[47.69,39.51],[48.88,38.32],[49.62,40.57],[48.58,41.81],[47.82,41.15],[46.4,41.86]]]},"properties":{"NAME_ZH":"阿塞拜疆","NAME_EN":"Azerbaijan","ADM0_A3":"AZE"}},
{"type":"Feature","geometry":{"type":"Polygon","coordinates":[[[39.96,43.43],[41.45,42.65],[41.55,41.54],[42.62,41.58],[43.58,41.09],[44.97,41.25],[46.64,41.18],[46.4,41.86],[45.47,42.5],[43.76,42.74],[42.39,43.22],[39.96,43.43]]]},"properties":{"NAME_ZH":"格鲁吉亚","NAME_EN":"Georgia","ADM0_A3":"GEO"}},
{"type":"Feature","geometry":{"type":"MultiPolygon","coordinates":[[[[122.59,9.98],[123,9.02],[123.98,10.28],[124.08,11.23],[122.95,10.88],[122.59,9.98]]],[[[126.38,8.41],[126.22,9.29],[124.76,8.96],[123.84,8.24],[123.49,8.69],[122.31,8.03],[121.92,7.19],[123.3,7.42],[124.22,6.16],[125.4,5.58],[125.36,6.79],[126.54,7.19],[126.38,8.41]]],[[[122.34,18.22],[120.72,18.51],[120.39,17.6],[120.07,14.97],[121.13,13.64],[122.03,13.78],[122.67,13.19],[123.86,13.24],[123.95,13.78],[122.7,14.34],[121.73,14.33],[121.66,15.93],[122.52,17.09],[122.34,18.22]]]]},"properties":{"NAME_ZH":"菲律宾","NAME_EN":"Philippines","ADM0_A3":"PHL"}},
{"type":"Feature","geometry":{"type":"MultiPolygon","coordinates":[[[[100.09,6.46],[100.2,5.31],[100.7,3.94],[101.39,2.76],[103.52,1.23],[104.23,1.29],[103.5,2.79],[103.38,4.86],[102.14,6.22],[101.81,5.81],[100.09,6.46]]],[[[117.88,4.14],[118.62,4.48],[119.18,5.41],[117.69,5.99],[116.73,6.92],[115.45,5.45],[115.35,4.32],[114.2,4.53],[113,3.1],[111.37,2.7],[111.17,1.85],[110.4,1.66],[109.66,2.01],[110.51,0.77],[111.8,0.9],[112.86,1.5],[113.81,1.22],[114.62,1.43],[115.87,4.31],[117.88,4.14]]]]},"properties":{"NAME_ZH":"马来西亚","NAME_EN":"Malaysia","ADM0_A3":"MYS"}},
{"type":"Feature","geometry":{"type":"Polygon","coordinates":[[[115.45,5.45],[114.2,4.53],[115.35,4.32],[115.45,5.45]]]},"properties":{"NAME_ZH":"文莱","NAME_EN":"Brunei","ADM0_A3":"BRN"}},
{"type":"Feature","geometry":{"type":"Polygon","coordinates":[[[13.81,46.51],[13.94,45.59],[13.72,45.5],[15.33,45.45],[16.56,46.5],[16.2,46.85],[13.81,46.51]]]},"properties":{"NAME_ZH":"斯洛文尼亚","NAME_EN":"Slovenia","ADM0_A3":"SVN"}},
{"type":"Feature","geometry":{"type":"Polygon","coordinates":[[[28.59,69.06],[29.02,69.77],[26.18,69.83],[24.74,68.65],[20.65,69.11],[23.54,67.94],[23.9,66.01],[25.4,65.11],[22.44,63.82],[21.06,62.61],[21.32,60.72],[22.87,59.85],[28.07,60.5],[31.14,62.36],[31.52,62.87],[30.04,63.55],[29.54,64.95],[30.22,65.81],[29.05,66.94],[29.98,67.7],[28.45,68.36],[28.59,69.06]]]},"properties":{"NAME_ZH":"芬兰","NAME_EN":"Finland","ADM0_A3":"FIN"}},
{"type":"Feature","geometry":{"type":"Polygon","coordinates":[[[22.56,49.09],[21.61,49.47],[19.83,49.22],[18.85,49.5],[16.96,48.6],[16.98,48.12],[17.86,47.76],[20.8,48.62],[22.09,48.42],[22.56,49.09]]]},"properties":{"NAME_ZH":"斯洛伐克","NAME_EN":"Slovakia","ADM0_A3":"SVK"}},
{"type":"Feature","geometry":{"type":"Polygon","coordinates":[[[15.02,51.11],[12.24,50.27],[12.52,49.55],[13.6,48.88],[15.25,49.04],[16.96,48.6],[18.85,49.5],[17.55,50.36],[15.02,51.11]]]},"properties":{"NAME_ZH":"捷克","NAME_EN":"Czech Republic","ADM0_A3":"CZE"}},
{"type":"Feature","geometry":{"type":"Polygon","coordinates":[[[36.43,14.42],[37.59,14.21],[39.1,14.74],[40.9,14.12],[42.35,12.54],[43.08,12.7],[41.18,14.49],[39.27,15.92],[38.41,18],[36.85,16.96],[36.32,14.82],[36.43,14.42]]]},"properties":{"NAME_ZH":"厄立特里亚","NAME_EN":"Eritrea","ADM0_A3":"ERI"}},
{"type":"Feature","geometry":{"type":"MultiPolygon","coordinates":[[[[141.88,39.18],[141.91,39.99],[141.37,41.38],[140.31,41.2],[139.88,40.56],[140.05,39.44],[139.43,38.22],[137.39,36.83],[136.72,37.3],[135.68,35.53],[134.61,35.73],[132.62,35.43],[129.41,33.3],[130.45,32.32],[130.2,31.42],[131.33,31.45],[132.16,33.9],[133.34,34.38],[135.08,34.6],[135.79,33.46],[137.22,34.61],[138.98,34.67],[140.25,35.14],[140.77,35.84],[140.96,38.17],[141.88,39.18]]],[[[144.61,43.96],[143.14,44.51],[141.97,45.55],[141.38,43.39],[140.31,43.33],[139.82,42.56],[139.96,41.57],[141.07,41.58],[141.61,42.68],[143.18,42],[144.06,42.99],[145.54,43.26],[144.61,43.96]]],[[[132.37,33.46],[134.2,33.2],[134.77,33.81],[133.9,34.36],[132.37,33.46]]]]},"properties":{"NAME_ZH":"日本","NAME_EN":"Japan","ADM0_A3":"JPN"}},
{"type":"Feature","geometry":{"type":"Polygon","coordinates":[[[-54.63,-25.74],[-54.29,-24.57],[-54.65,-23.84],[-55.4,-23.96],[-55.61,-22.66],[-56.47,-22.09],[-57.94,-22.09],[-57.87,-20.73],[-58.17,-20.18],[-59.12,-19.36],[-61.79,-19.63],[-62.27,-20.51],[-62.69,-22.25],[-60.85,-23.88],[-60.03,-24.03],[-57.78,-25.16],[-57.63,-25.6],[-58.62,-27.12],[-56.49,-27.55],[-55.7,-27.39],[-54.79,-26.62],[-54.63,-25.74]]]},"properties":{"NAME_ZH":"巴拉圭","NAME_EN":"Paraguay","ADM0_A3":"PRY"}},
{"type":"Feature","geometry":{"type":"Polygon","coordinates":[[[52,19],[49.12,18.62],[48.18,18.17],[47,16.95],[45.22,17.43],[43.38,17.58],[42.78,16.35],[42.7,15.72],[43.48,12.64],[44.99,12.7],[45.63,13.29],[48.68,14],[49.57,14.71],[52.17,15.6],[52.39,16.38],[53.11,16.65],[52,19]]]},"properties":{"NAME_ZH":"也门","NAME_EN":"Yemen","ADM0_A3":"YEM"}},
{"type":"Feature","geometry":{"type":"Polygon","coordinates":[[[34.96,29.36],[35.13,28.06],[36.93,25.6],[37.48,24.29],[38.49,23.69],[39.07,22.58],[39.14,21.29],[39.8,20.34],[40.94,19.49],[41.75,17.83],[42.27,17.47],[42.78,16.35],[43.38,17.58],[45.22,17.43],[47,16.95],[48.18,18.17],[49.12,18.62],[52,19],[55,20],[55.67,22],[55.21,22.71],[55.01,22.5],[52,23],[51.58,24.25],[51.39,24.63],[50.81,24.75],[50.11,25.94],[50.15,26.69],[48.81,27.69],[48.42,28.55],[46.57,29.1],[44.71,29.18],[41.89,31.19],[40.4,31.89],[39.2,32.16],[37,31.51],[38,30.51],[36.07,29.2],[34.96,29.36]]]},"properties":{"NAME_ZH":"沙特阿拉伯","NAME_EN":"Saudi Arabia","ADM0_A3":"SAU"}},
{"type":"Feature","geometry":{"type":"MultiPolygon","coordinates":[[[[-48.66,-78.05],[-51.85,-79.95],[-50.48,-81.03],[-43.33,-80.03],[-43.92,-78.48],[-48.66,-78.05]]],[[[-73.92,-71.27],[-74.19,-72.37],[-71.08,-72.5],[-68.78,-72.17],[-68.45,-70.96],[-69.72,-69.25],[-71.74,-69.51],[-72.07,-71.19],[-73.92,-71.27]]],[[[180,-84.71],[175.99,-84.16],[162.49,-82.06],[159.79,-80.95],[161.77,-79.16],[167,-78.75],[163.49,-77.07],[164.23,-75.46],[166.09,-74.38],[169.29,-73.66],[171.21,-71.7],[168.43,-70.97],[162.69,-70.74],[159.18,-69.6],[156.81,-69.38],[154.28,-68.56],[152.5,-68.87],[146.65,-67.9],[145.49,-66.92],[143.06,-66.8],[137.46,-66.95],[135.87,-66.03],[130.78,-66.43],[128.8,-66.76],[122.32,-66.56],[120.87,-67.19],[115.6,-66.7],[113.6,-65.88],[110.24,-66.7],[106.18,-66.93],[102.83,-65.56],[99.72,-67.25],[95.02,-67.17],[90.63,-67.23],[87.48,-66.88],[82.78,-67.21],[79.11,-68.33],[77.64,-69.46],[73.86,-69.87],[71.02,-72.09],[67.95,-71.85],[68.93,-71.07],[67.81,-70.31],[69.56,-69.68],[68.89,-67.93],[64.05,-67.41],[62.39,-68.01],[58.74,-67.29],[56.36,-65.97],[52.61,-66.05],[46.5,-67.6],[40.02,-69.11],[38.65,-69.78],[33.87,-68.5],[32.75,-69.38],[27.09,-70.46],[23.67,-70.52],[19.26,-69.89],[13.42,-69.97],[10.82,-70.83],[9.53,-70.01],[7.14,-70.25],[0.87,-71.3],[-1.8,-71.17],[-7.42,-71.7],[-10.3,-71.27],[-13.31,-72.72],[-15.45,-73.15],[-15.7,-74.5],[-21.22,-75.91],[-28.88,-76.67],[-35.78,-78.34],[-35.64,-79.46],[-29.69,-79.26],[-28.55,-80.34],[-40.77,-81.36],[-42.81,-82.08],[-49.76,-81.73],[-57.01,-82.87],[-63.26,-81.75],[-75.36,-80.26],[-78.02,-79.18],[-77.93,-78.38],[-73.66,-77.91],[-77.24,-76.71],[-70.6,-76.63],[-69.8,-76.22],[-64.35,-75.26],[-61.96,-74.44],[-60.69,-73.17],[-61.51,-71.09],[-63.2,-69.23],[-64.78,-68.68],[-65.51,-67.58],[-63.75,-66.5],[-62.12,-66.19],[-63,-64.64],[-66.06,-66.21],[-67.74,-67.33],[-67.43,-68.15],[-68.49,-70.11],[-67.25,-71.64],[-68.94,-73.01],[-76.22,-73.97],[-77.93,-73.42],[-81.47,-73.85],[-88.42,-73.01],[-92.44,-73.17],[-96.34,-73.62],[-100.31,-72.75],[-103.68,-72.62],[-103.11,-73.73],[-101.25,-74.19],[-100.65,-75.3],[-104.88,-74.95],[-107.56,-75.18],[-113.94,-73.71],[-116.22,-74.24],[-125.4,-74.52],[-128.24,-74.32],[-135.21,-74.3],[-144.32,-75.54],[-146.1,-76.48],[-151.33,-77.4],[-156.97,-77.3],[-158.05,-78.03],[-155.33,-79.06],[-149.53,-79.36],[-146.77,-79.93],[-147.22,-80.67],[-152.86,-82.04],[-153.59,-83.69],[-142.89,-84.57],[-148.53,-85.61],[-167.02,-84.57],[-180,-84.71],[-180,-90],[180,-90],[180,-84.71]]]]},"properties":{"NAME_ZH":"南极洲","NAME_EN":"Antarctica","ADM0_A3":"ATA"}},
{"type":"Feature","geometry":{"type":"Polygon","coordinates":[[[32.73,35.14],[33.97,35.06],[33.67,35.37],[32.73,35.14]]]},"properties":{"NAME_ZH":"北塞浦路斯土耳其共和国","NAME_EN":"Turkish Republic of Northern Cyprus","ADM0_A3":"CYN"}},
{"type":"Feature","geometry":{"type":"Polygon","coordinates":[[[32.73,35.14],[32.98,34.57],[33.97,35.06],[32.73,35.14]]]},"properties":{"NAME_ZH":"塞浦路斯","NAME_EN":"Cyprus","ADM0_A3":"CYP"}},
{"type":"Feature","geometry":{"type":"Polygon","coordinates":[[[-8.67,27.66],[-8.67,28.84],[-7.06,29.58],[-5.24,30],[-3.69,30.9],[-3.65,31.64],[-1.31,32.26],[-1.79,34.53],[-2.17,35.17],[-4.59,35.33],[-5.93,35.76],[-6.91,34.11],[-8.66,33.24],[-9.3,32.56],[-9.81,31.18],[-9.56,29.93],[-11.69,28.15],[-12.62,28.04],[-13.77,26.62],[-14.44,26.25],[-15.09,24.52],[-15.98,23.72],[-16.26,22.68],[-17.02,21.42],[-14.75,21.5],[-14.22,22.31],[-13.89,23.69],[-12.5,24.77],[-12.03,26.03],[-11.39,26.88],[-9.74,26.86],[-8.67,27.66]]]},"properties":{"NAME_ZH":"摩洛哥","NAME_EN":"Morocco","ADM0_A3":"MAR"}},
{"type":"Feature","geometry":{"type":"Polygon","coordinates":[[[36.87,22],[35.53,23.1],[35.69,23.93],[34.1,26.14],[33.35,27.7],[34.43,28.34],[34.82,29.76],[34.27,31.22],[32.99,31.02],[30.98,31.56],[30.1,31.47],[28.91,30.87],[26.5,31.59],[25.16,31.57],[24.7,30.04],[25,29.24],[25,25.68],[25,22],[29.02,22],[32.9,22],[36.87,22]]]},"properties":{"NAME_ZH":"埃及","NAME_EN":"Egypt","ADM0_A3":"EGY"}},
{"type":"Feature","geometry":{"type":"Polygon","coordinates":[[[25,22],[25,25.68],[25,29.24],[24.7,30.04],[25.16,31.57],[24.92,31.9],[23.24,32.19],[22.9,32.64],[20.85,32.71],[19.82,31.75],[20.05,30.99],[19.09,30.27],[18.02,30.76],[15.71,31.38],[15.25,32.27],[13.92,32.71],[11.49,33.14],[11.43,32.37],[9.95,31.38],[9.48,30.31],[9.86,28.96],[9.72,26.51],[9.32,26.09],[10.3,24.38],[10.77,24.56],[12,23.47],[13.58,23.04],[14.14,22.49],[14.85,22.86],[15.86,23.41],[19.85,21.5],[23.84,19.58],[25,20],[25,22]]]},"properties":{"NAME_ZH":"利比亚","NAME_EN":"Libya","ADM0_A3":"LBY"}},
{"type":"Feature","geometry":{"type":"Polygon","coordinates":[[[47.79,8],[46.95,8],[43.68,9.18],[42.56,10.57],[42.78,10.93],[41.76,11.05],[41.66,11.63],[42.35,12.54],[40.9,14.12],[39.1,14.74],[37.59,14.21],[36.43,14.42],[35.86,12.58],[35.26,12.08],[34.73,10.91],[34.26,10.63],[33.97,8.68],[33.29,8.35],[34.25,6.83],[35.3,5.51],[36.16,4.45],[36.86,4.45],[38.12,3.6],[39.56,3.42],[40.77,4.26],[41.86,3.92],[43.66,4.96],[44.96,5],[47.79,8]]]},"properties":{"NAME_ZH":"埃塞俄比亚","NAME_EN":"Ethiopia","ADM0_A3":"ETH"}},
{"type":"Feature","geometry":{"type":"Polygon","coordinates":[[[42.35,12.54],[41.66,11.63],[41.76,11.05],[42.78,10.93],[43.15,11.46],[43.08,12.7],[42.35,12.54]]]},"properties":{"NAME_ZH":"吉布提","NAME_EN":"Djibouti","ADM0_A3":"DJI"}},
{"type":"Feature","geometry":{"type":"Polygon","coordinates":[[[48.95,11.41],[46.65,10.82],[44.12,10.45],[43.15,11.46],[42.78,10.93],[42.56,10.57],[43.68,9.18],[46.95,8],[47.79,8],[48.94,9.45],[48.95,11.41]]]},"properties":{"NAME_ZH":"索马里兰","NAME_EN":"Somaliland","ADM0_A3":"SOL"}},
{"type":"Feature","geometry":{"type":"Polygon","coordinates":[[[33.9,-0.95],[33.89,0.11],[35.04,1.91],[34.48,3.56],[34.01,4.25],[33.39,3.79],[30.83,3.51],[30.77,2.34],[29.88,0.6],[29.58,-1.34],[30.42,-1.13],[30.77,-1.01],[33.9,-0.95]]]},"properties":{"NAME_ZH":"乌干达","NAME_EN":"Uganda","ADM0_A3":"UGA"}},
{"type":"Feature","geometry":{"type":"Polygon","coordinates":[[[30.42,-1.13],[29.58,-1.34],[29.02,-2.84],[30.47,-2.41],[30.82,-1.7],[30.42,-1.13]]]},"properties":{"NAME_ZH":"卢旺达","NAME_EN":"Rwanda","ADM0_A3":"RWA"}},
{"type":"Feature","geometry":{"type":"Polygon","coordinates":[[[18.56,42.65],[19.22,43.52],[19.6,44.04],[19.01,44.86],[15.96,45.23],[15.75,44.82],[17.67,43.03],[18.56,42.65]]]},"properties":{"NAME_ZH":"波斯尼亚和黑塞哥维那","NAME_EN":"Bosnia and Herzegovina","ADM0_A3":"BIH"}},
{"type":"Feature","geometry":{"type":"Polygon","coordinates":[[[22.38,42.32],[21.58,42.25],[20.59,41.86],[21.02,40.84],[22.95,41.34],[22.38,42.32]]]},"properties":{"NAME_ZH":"北马其顿","NAME_EN":"North Macedonia","ADM0_A3":"MKD"}},
{"type":"Feature","geometry":{"type":"Polygon","coordinates":[[[18.83,45.91],[19.01,44.86],[19.6,44.04],[19.22,43.52],[20.26,42.81],[21.58,42.25],[22.38,42.32],[22.99,43.21],[22.66,44.23],[21.56,44.77],[20.22,46.13],[18.83,45.91]]]},"properties":{"NAME_ZH":"塞尔维亚","NAME_EN":"Serbia","ADM0_A3":"SRB"}},
{"type":"Feature","geometry":{"type":"Polygon","coordinates":[[[20.07,42.59],[20.26,42.81],[19.22,43.52],[18.56,42.65],[18.45,42.48],[19.37,41.88],[20.07,42.59]]]},"properties":{"NAME_ZH":"黑山","NAME_EN":"Montenegro","ADM0_A3":"MNE"}},
{"type":"Feature","geometry":{"type":"Polygon","coordinates":[[[20.59,41.86],[21.58,42.25],[20.26,42.81],[20.07,42.59],[20.59,41.86]]]},"properties":{"NAME_ZH":"科索沃","NAME_EN":"Kosovo","ADM0_A3":"KOS"}},
{"type":"Feature","geometry":{"type":"Polygon","coordinates":[[[-61.68,10.76],[-61.77,10],[-60.93,10.11],[-60.89,10.86],[-61.68,10.76]]]},"properties":{"NAME_ZH":"特立尼达和多巴哥","NAME_EN":"Trinidad and Tobago","ADM0_A3":"TTO"}},
{"type":"Feature","geometry":{"type":"Polygon","coordinates":[[[30.83,3.51],[33.39,3.79],[34.01,4.25],[35.3,5.51],[34.25,6.83],[33.29,8.35],[33.97,8.68],[33.72,10.33],[33.21,10.72],[33.21,12.18],[32.31,11.68],[32.4,11.08],[31.35,9.81],[30,10.29],[28.97,9.4],[26.48,9.55],[25.79,10.41],[25.07,10.27],[24.54,8.92],[24.57,8.23],[27.37,5.23],[28.43,4.29],[29.72,4.6],[30.83,3.51]]]},"properties":{"NAME_ZH":"南苏丹","NAME_EN":"South Sudan","ADM0_A3":"SDS"}}
]}
