{"type":"FeatureCollection", "features": [
{"type":"Feature","geometry":{"type":"Polygon","coordinates":[[[117.39,40.228],[117.27,40.561],[116.678,40.971],[116.005,40.584],[115.755,40.54],[115.969,40.264],[115.455,40.03],[115.492,39.67],[115.723,39.544],[115.739,39.54],[116.723,39.593],[116.724,39.593],[116.812,39.616],[116.906,39.688],[116.781,40.035],[117.21,40.082],[117.367,40.173],[117.39,40.228]]]},"properties":{"adcode":110000,"name":"北京市","center":[116.405285,39.904989],"centroid":[116.41995,40.18994],"childrenNum":16,"level":"province","parent":{"adcode":100000},"subFeatureIndex":0,"acroutes":[100000]}},
{"type":"Feature","geometry":{"type":"Polygon","coordinates":[[[117.21,40.082],[117.178,39.645],[116.906,39.688],[116.812,39.616],[116.913,39.111],[116.708,38.932],[116.949,38.689],[116.951,38.689],[117.253,38.556],[117.639,38.627],[117.848,38.856],[117.838,39.057],[118.035,39.219],[117.855,39.328],[117.854,39.328],[117.805,39.373],[117.847,39.408],[117.508,39.902],[117.675,40.082],[117.39,40.228],[117.367,40.173],[117.21,40.082]]]},"properties":{"adcode":120000,"name":"天津市","center":[117.190182,39.125596],"centroid":[117.347043,39.288036],"childrenNum":16,"level":"province","parent":{"adcode":100000},"subFeatureIndex":1,"acroutes":[100000]}},
{"type":"Feature","geometry":{"type":"MultiPolygon","coordinates":[[[[117.39,40.228],[117.675,40.082],[117.508,39.902],[117.847,39.408],[117.805,39.373],[117.854,39.328],[117.855,39.328],[118.035,39.219],[118.491,38.909],[118.637,39.157],[118.926,39.123],[119.317,39.437],[119.366,39.735],[119.854,39.989],[119.504,40.554],[119.231,40.604],[118.846,40.822],[118.965,41.079],[119.24,41.314],[118.412,41.332],[118.133,41.733],[118.34,41.872],[118.098,42.105],[117.998,42.417],[117.78,42.618],[117.413,42.472],[116.887,42.366],[116.88,42.018],[116.374,42.01],[116.007,41.798],[115.917,41.945],[115.204,41.571],[114.895,41.636],[114.826,42.14],[114.201,41.79],[114.231,41.514],[113.933,41.487],[113.869,41.069],[114.135,40.737],[114.312,40.373],[114.029,39.986],[114.395,39.867],[114.569,39.574],[114.346,39.075],[114.051,39.136],[113.768,38.96],[113.613,38.646],[113.545,38.271],[113.797,38.163],[114.068,37.722],[114.015,37.425],[113.758,37.075],[113.773,36.855],[113.477,36.655],[113.731,36.363],[114.587,36.141],[115.125,36.21],[115.484,36.149],[115.273,36.497],[115.48,36.76],[115.684,36.808],[115.976,37.337],[116.38,37.522],[116.381,37.523],[116.805,37.849],[117.439,37.854],[117.896,38.302],[117.639,38.627],[117.253,38.556],[116.951,38.689],[116.949,38.689],[116.708,38.932],[116.913,39.111],[116.812,39.616],[116.724,39.593],[116.723,39.593],[115.739,39.54],[115.723,39.544],[115.492,39.67],[115.455,40.03],[115.969,40.264],[115.755,40.54],[116.005,40.584],[116.678,40.971],[117.27,40.561],[117.39,40.228]]],[[[116.906,39.688],[117.178,39.645],[117.21,40.082],[116.781,40.035],[116.906,39.688]]]]},"properties":{"adcode":130000,"name":"河北省","center":[114.502461,38.045474],"childrenNum":11,"level":"province","parent":{"adcode":100000},"subFeatureIndex":2,"acroutes":[100000]}},
{"type":"Feature","geometry":{"type":"Polygon","coordinates":[[[114.135,40.737],[114.062,40.529],[113.56,40.348],[113.251,40.413],[112.898,40.329],[112.744,40.167],[112.456,40.3],[112.232,40.133],[111.938,39.623],[111.445,39.64],[111.126,39.366],[111.248,39.302],[110.881,38.627],[110.874,38.454],[110.578,38.297],[110.523,37.955],[110.795,37.559],[110.461,37.045],[110.408,36.776],[110.504,36.488],[110.447,36.164],[110.61,35.632],[110.231,34.881],[110.379,34.601],[110.825,34.616],[111.933,35.083],[112.059,35.28],[112.773,35.208],[113.499,35.532],[113.695,36.027],[113.731,36.363],[113.477,36.655],[113.773,36.855],[113.758,37.075],[114.015,37.425],[114.068,37.722],[113.797,38.163],[113.545,38.271],[113.613,38.646],[113.768,38.96],[114.051,39.136],[114.346,39.075],[114.569,39.574],[114.395,39.867],[114.029,39.986],[114.312,40.373],[114.135,40.737]]]},"properties":{"adcode":140000,"name":"山西省","center":[112.549248,37.857014],"centroid":[112.304436,37.618179],"childrenNum":11,"level":"province","parent":{"adcode":100000},"subFeatureIndex":3,"acroutes":[100000]}},
{"type":"Feature","geometry":{"type":"Polygon","coordinates":[[[119.24,41.314],[119.433,42.317],[119.745,42.212],[120.127,41.773],[120.466,42.106],[121.386,42.474],[121.666,42.437],[121.939,42.688],[122.339,42.67],[122.556,42.828],[123.058,42.769],[123.259,42.993],[123.631,43.088],[123.704,43.37],[123.324,44.18],[123.025,44.493],[122.675,44.286],[122.319,44.233],[122.049,44.913],[122.168,45.44],[122.003,45.508],[121.817,45.875],[122.362,45.917],[122.641,45.771],[123.178,46.248],[123.002,46.575],[123.603,46.689],[123.626,46.848],[122.907,46.807],[122.821,47.066],[122.418,47.351],[122.594,47.547],[123.162,47.782],[124.079,48.436],[124.519,48.378],[124.612,48.748],[124.907,49.184],[125.262,49.322],[125.19,49.96],[125.279,50.127],[125.829,50.562],[125.759,50.747],[126.043,50.926],[125.352,51.624],[125.13,51.635],[124.864,51.38],[123.662,51.319],[123.294,51.254],[122.854,51.478],[122.749,51.747],[122.769,52.18],[122.142,52.495],[121.948,52.298],[121.324,52.574],[121.818,53.062],[121.499,53.337],[120.883,53.294],[120.181,52.807],[120.691,52.548],[120.787,52.158],[120.657,51.926],[120.087,51.678],[119.764,51.092],[119.491,50.879],[119.251,50.449],[119.31,50.161],[119.09,49.986],[118.575,49.931],[117.809,49.521],[117.069,49.695],[116.718,49.847],[115.8,48.515],[115.823,48.259],[115.529,48.155],[115.58,47.922],[115.939,47.683],[116.266,47.877],[116.879,47.894],[117.384,47.641],[117.814,48.016],[118.568,47.992],[118.773,47.771],[119.134,47.664],[119.716,47.196],[119.935,46.713],[119.783,46.626],[118.316,46.739],[117.871,46.55],[117.42,46.582],[117.372,46.36],[116.877,46.376],[116.585,46.293],[116.272,45.967],[116.287,45.775],[115.7,45.46],[115.365,45.392],[114.551,45.387],[114.347,45.119],[113.631,44.745],[112.85,44.84],[112.439,45.072],[112.003,45.091],[111.765,44.969],[111.416,44.357],[111.87,43.94],[111.951,43.693],[111.564,43.49],[111.02,43.33],[110.437,42.781],[109.544,42.473],[108.846,42.396],[108.238,42.46],[107.574,42.413],[106.786,42.291],[105.742,41.949],[105.009,41.583],[104.524,41.662],[104.53,41.875],[103.869,41.802],[103.419,41.882],[102.712,42.153],[102.07,42.232],[101.804,42.504],[100.863,42.671],[100.325,42.69],[99.512,42.568],[98.195,42.653],[97.173,42.795],[97.847,41.656],[97.614,41.477],[97.972,41.098],[98.333,40.919],[98.344,40.568],[99.175,40.858],[99.673,40.933],[100.057,40.908],[100.237,40.717],[100.169,40.278],[99.822,39.86],[100.25,39.685],[100.499,39.401],[100.842,39.406],[100.835,39.026],[101.199,38.943],[101.331,38.777],[101.777,38.66],[102.075,38.891],[101.834,39.089],[102.453,39.255],[103.008,39.1],[103.345,39.332],[103.853,39.462],[104.208,39.083],[103.86,38.645],[103.416,38.405],[103.535,38.157],[103.407,37.861],[103.683,37.778],[104.184,37.407],[104.287,37.428],[104.434,37.515],[105.028,37.581],[105.599,37.699],[105.84,38.004],[105.775,38.187],[105.909,38.791],[106.146,39.153],[106.751,39.382],[106.954,38.941],[106.709,38.719],[106.482,38.319],[106.779,38.172],[107.139,38.161],[107.65,37.864],[108.013,37.669],[108.628,37.652],[109.054,38.434],[109.961,39.192],[110.385,39.31],[110.626,39.267],[110.87,39.494],[111.126,39.366],[111.445,39.64],[111.938,39.623],[112.232,40.133],[112.456,40.3],[112.744,40.167],[112.898,40.329],[113.251,40.413],[113.56,40.348],[114.062,40.529],[114.135,40.737],[113.869,41.069],[113.933,41.487],[114.231,41.514],[114.201,41.79],[114.826,42.14],[114.895,41.636],[115.204,41.571],[115.917,41.945],[116.007,41.798],[116.374,42.01],[116.88,42.018],[116.887,42.366],[117.413,42.472],[117.78,42.618],[117.998,42.417],[118.098,42.105],[118.34,41.872],[118.133,41.733],[118.412,41.332],[119.24,41.314]]]},"properties":{"adcode":150000,"name":"内蒙古自治区","center":[111.670801,40.818311],"centroid":[114.077429,44.331087],"childrenNum":12,"level":"province","parent":{"adcode":100000},"subFeatureIndex":4,"acroutes":[100000]}},
{"type":"Feature","geometry":{"type":"Polygon","coordinates":[[[119.854,39.989],[120.492,40.2],[120.619,40.46],[121.126,40.869],[121.683,40.83],[122.246,40.52],[121.91,40.073],[121.53,39.851],[121.246,39.389],[121.589,39.263],[121.582,39.076],[121.863,38.943],[122.413,39.412],[122.979,39.616],[123.812,39.831],[124.099,39.777],[124.458,40.178],[124.914,40.482],[125.454,40.677],[125.708,40.867],[125.759,41.232],[125.295,41.823],[125.299,42.29],[125.011,42.632],[124.785,43.117],[124.426,43.076],[124.276,43.233],[123.704,43.37],[123.631,43.088],[123.259,42.993],[123.058,42.769],[122.556,42.828],[122.339,42.67],[121.939,42.688],[121.666,42.437],[121.386,42.474],[120.466,42.106],[120.127,41.773],[119.745,42.212],[119.433,42.317],[119.24,41.314],[118.965,41.079],[118.846,40.822],[119.231,40.604],[119.504,40.554],[119.854,39.989]]]},"properties":{"adcode":210000,"name":"辽宁省","center":[123.429096,41.796767],"centroid":[122.604994,41.299712],"childrenNum":14,"level":"province","parent":{"adcode":100000},"subFeatureIndex":5,"acroutes":[100000]}},
{"type":"Feature","geometry":{"type":"Polygon","coordinates":[[[123.704,43.37],[124.276,43.233],[124.426,43.076],[124.785,43.117],[125.011,42.632],[125.299,42.29],[125.295,41.823],[125.759,41.232],[125.708,40.867],[125.959,40.882],[126.497,41.407],[126.608,41.669],[126.953,41.804],[127.119,41.54],[127.637,41.414],[128.204,41.411],[128.302,41.628],[128.113,41.794],[128.091,42.023],[128.898,42.017],[129.216,42.208],[129.241,42.376],[129.749,42.471],[129.897,43.002],[130.466,42.772],[131.043,42.863],[131.305,43.502],[130.907,43.434],[130.413,43.653],[130.382,43.91],[129.951,44.027],[129.78,43.893],[129.212,43.785],[129.23,43.593],[128.878,43.54],[128.45,44.203],[127.783,44.072],[127.464,44.485],[126.984,44.824],[126.964,45.132],[126.569,45.253],[126.166,45.133],[125.695,45.352],[124.399,45.441],[124.054,45.751],[123.918,46.257],[123.178,46.248],[122.641,45.771],[122.362,45.917],[121.817,45.875],[122.003,45.508],[122.168,45.44],[122.049,44.913],[122.319,44.233],[122.675,44.286],[123.025,44.493],[123.324,44.18],[123.704,43.37]]]},"properties":{"adcode":220000,"name":"吉林省","center":[125.3245,43.886841],"centroid":[126.171208,43.703954],"childrenNum":9,"level":"province","parent":{"adcode":100000},"subFeatureIndex":6,"acroutes":[100000]}},
{"type":"Feature","geometry":{"type":"Polygon","coordinates":[[[123.178,46.248],[123.918,46.257],[124.054,45.751],[124.399,45.441],[125.695,45.352],[126.166,45.133],[126.569,45.253],[126.964,45.132],[126.984,44.824],[127.464,44.485],[127.783,44.072],[128.45,44.203],[128.878,43.54],[129.23,43.593],[129.212,43.785],[129.78,43.893],[129.951,44.027],[130.382,43.91],[130.413,43.653],[130.907,43.434],[131.305,43.502],[131.217,43.836],[131.311,44.047],[131.112,44.71],[130.965,44.851],[131.484,44.996],[131.83,45.312],[132.867,45.062],[133.107,45.125],[133.204,45.517],[133.471,45.631],[133.91,46.254],[133.85,46.475],[134.23,47.182],[134.78,47.716],[134.552,48.033],[134.679,48.256],[134.502,48.419],[133.741,48.255],[133.546,48.121],[133.13,48.135],[132.558,47.718],[131.977,47.673],[130.966,47.733],[130.674,48.128],[130.845,48.296],[130.538,48.612],[130.681,48.881],[130.28,48.867],[129.937,49.04],[129.546,49.395],[129.062,49.374],[128.538,49.604],[127.815,49.594],[127.532,49.826],[127.603,50.239],[127.372,50.297],[127.371,50.581],[126.923,51.062],[126.976,51.292],[126.307,52.206],[126.354,52.389],[125.64,53.062],[125.142,53.204],[124.497,53.208],[124.239,53.38],[123.31,53.561],[122.895,53.463],[122.35,53.506],[121.499,53.337],[121.818,53.062],[121.324,52.574],[121.948,52.298],[122.142,52.495],[122.769,52.18],[122.749,51.747],[122.854,51.478],[123.294,51.254],[123.662,51.319],[124.864,51.38],[125.13,51.635],[125.352,51.624],[126.043,50.926],[125.759,50.747],[125.829,50.562],[125.279,50.127],[125.19,49.96],[125.262,49.322],[124.907,49.184],[124.612,48.748],[124.519,48.378],[124.079,48.436],[123.162,47.782],[122.594,47.547],[122.418,47.351],[122.821,47.066],[122.907,46.807],[123.626,46.848],[123.603,46.689],[123.002,46.575],[123.178,46.248]]]},"properties":{"adcode":230000,"name":"黑龙江省","center":[126.642464,45.756967],"centroid":[127.693027,48.040465],"childrenNum":13,"level":"province","parent":{"adcode":100000},"subFeatureIndex":7,"acroutes":[100000]}},
{"type":"Feature","geometry":{"type":"MultiPolygon","coordinates":[[[[120.901,31.017],[120.992,30.837],[121.275,30.677],[121.601,30.805],[121.944,30.777],[121.97,30.789],[121.947,31.066],[121.722,31.304],[121.344,31.512],[121.175,31.449],[120.901,31.017]]],[[[121.975,31.617],[121.6,31.703],[121.323,31.868],[121.145,31.754],[121.372,31.553],[121.891,31.429],[121.975,31.617]]]]},"properties":{"adcode":310000,"name":"上海市","center":[121.472644,31.231706],"centroid":[121.438737,31.072559],"childrenNum":16,"level":"province","parent":{"adcode":100000},"subFeatureIndex":8,"acroutes":[100000]}},
{"type":"Feature","geometry":{"type":"Polygon","coordinates":[[[121.344,31.512],[121.372,31.553],[121.145,31.754],[121.323,31.868],[121.6,31.703],[121.975,31.617],[121.856,31.955],[121.525,32.136],[121.426,32.431],[120.98,32.636],[120.981,32.86],[120.367,34.092],[120.312,34.307],[119.812,34.486],[119.238,34.799],[119.306,35.077],[118.863,35.026],[118.69,34.678],[118.425,34.595],[117.794,34.652],[117.593,34.463],[117.152,34.559],[116.922,34.895],[116.445,34.896],[116.374,34.64],[116.828,34.389],[117.192,34.069],[117.569,33.985],[118.107,33.475],[118.3,32.783],[118.707,32.72],[118.849,32.957],[119.185,32.826],[119.22,32.577],[118.922,32.557],[118.394,32.076],[118.364,31.93],[118.886,31.519],[118.884,31.5],[118.795,31.229],[119.374,31.259],[119.624,31.13],[119.921,31.17],[120.15,30.937],[120.901,31.017],[121.175,31.449],[121.344,31.512]]]},"properties":{"adcode":320000,"name":"江苏省","center":[118.767413,32.041544],"centroid":[119.486506,32.983991],"childrenNum":13,"level":"province","parent":{"adcode":100000},"subFeatureIndex":9,"acroutes":[100000]}},
{"type":"Feature","geometry":{"type":"MultiPolygon","coordinates":[[[[120.901,31.017],[120.15,30.937],[119.921,31.17],[119.624,31.13],[119.483,30.704],[119.239,30.609],[119.368,30.385],[118.954,30.36],[118.895,29.938],[118.496,29.519],[118.193,29.395],[118.038,29.102],[118.428,28.681],[118.434,28.288],[118.756,28.252],[118.719,28.064],[118.914,27.62],[119.269,27.422],[119.501,27.65],[119.843,27.3],[120.135,27.42],[120.344,27.363],[120.462,27.142],[120.703,27.478],[120.709,27.683],[120.974,27.887],[121.134,27.787],[121.135,27.787],[121.489,28.302],[121.693,28.407],[121.557,28.645],[121.775,28.864],[121.66,29.118],[121.988,29.111],[121.938,29.384],[122.007,29.892],[121.636,30.07],[121.498,30.259],[121.058,30.564],[121.275,30.677],[120.992,30.837],[120.901,31.017]]],[[[122.155,29.971],[122.163,29.988],[122.152,29.971],[122.155,29.971]]]]},"properties":{"adcode":330000,"name":"浙江省","center":[120.153576,30.287459],"centroid":[120.109913,29.181466],"childrenNum":11,"level":"province","parent":{"adcode":100000},"subFeatureIndex":10,"acroutes":[100000]}},
{"type":"Feature","geometry":{"type":"Polygon","coordinates":[[[116.374,34.64],[116.197,34.576],[116.162,34.46],[116.528,34.123],[116.643,33.897],[116.156,33.71],[115.958,34.008],[115.607,34.03],[115.601,33.659],[115.315,33.431],[115.304,33.15],[114.903,33.13],[114.943,32.935],[115.197,32.856],[115.201,32.592],[115.509,32.469],[115.509,32.467],[115.846,32.502],[115.942,32.166],[115.886,31.776],[115.495,31.673],[115.374,31.406],[115.586,31.144],[115.867,31.148],[116.072,30.957],[115.763,30.685],[116.066,30.205],[116.135,29.82],[116.281,29.789],[116.747,30.057],[116.883,29.894],[116.674,29.71],[116.68,29.681],[116.781,29.57],[117.382,29.841],[117.543,29.589],[118.144,29.49],[118.193,29.395],[118.496,29.519],[118.895,29.938],[118.954,30.36],[119.368,30.385],[119.239,30.609],[119.483,30.704],[119.624,31.13],[119.374,31.259],[118.795,31.229],[118.884,31.5],[118.886,31.519],[118.364,31.93],[118.394,32.076],[118.922,32.557],[119.22,32.577],[119.185,32.826],[118.849,32.957],[118.707,32.72],[118.3,32.783],[118.107,33.475],[117.569,33.985],[117.192,34.069],[116.828,34.389],[116.374,34.64]]]},"properties":{"adcode":340000,"name":"安徽省","center":[117.283042,31.86119],"centroid":[117.226884,31.849254],"childrenNum":16,"level":"province","parent":{"adcode":100000},"subFeatureIndex":11,"acroutes":[100000]}},
{"type":"Feature","geometry":{"type":"Polygon","coordinates":[[[118.434,28.288],[118.356,28.092],[117.856,27.946],[117.556,27.966],[117.103,27.533],[117.15,27.241],[117.053,27.1],[116.679,26.978],[116.515,26.721],[116.601,26.373],[116.489,26.114],[116.178,25.894],[115.856,25.21],[115.893,24.937],[116.346,24.829],[116.667,24.659],[116.904,24.37],[117.055,23.694],[117.193,23.562],[117.464,23.585],[118.019,24.197],[118.088,24.409],[118.513,24.608],[118.614,24.522],[118.864,24.888],[118.892,25.093],[119.269,25.16],[119.597,25.335],[119.604,26.169],[119.894,26.356],[119.711,26.687],[120.11,26.693],[120.13,26.918],[120.462,27.142],[120.344,27.363],[120.135,27.42],[119.843,27.3],[119.501,27.65],[119.269,27.422],[118.914,27.62],[118.719,28.064],[118.756,28.252],[118.434,28.288]]]},"properties":{"adcode":350000,"name":"福建省","center":[119.306239,26.075302],"centroid":[118.006468,26.069925],"childrenNum":9,"level":"province","parent":{"adcode":100000},"subFeatureIndex":12,"acroutes":[100000]}},
{"type":"Feature","geometry":{"type":"Polygon","coordinates":[[[118.193,29.395],[118.144,29.49],[117.543,29.589],[117.382,29.841],[116.781,29.57],[116.68,29.681],[116.674,29.71],[116.883,29.894],[116.747,30.057],[116.281,29.789],[116.135,29.82],[115.966,29.724],[115.512,29.84],[115.355,29.65],[115.144,29.646],[114.52,29.326],[114.259,29.344],[113.942,29.047],[114.157,28.762],[114.086,28.558],[114.253,28.319],[113.607,27.625],[113.617,27.346],[113.927,26.949],[113.861,26.664],[114.109,26.57],[114.088,26.168],[113.914,25.701],[113.945,25.442],[114.116,25.302],[114.541,25.417],[114.714,25.316],[114.258,24.641],[114.534,24.559],[115.105,24.668],[115.413,24.793],[115.689,24.545],[115.893,24.937],[115.856,25.21],[116.178,25.894],[116.489,26.114],[116.601,26.373],[116.515,26.721],[116.679,26.978],[117.053,27.1],[117.15,27.241],[117.103,27.533],[117.556,27.966],[117.856,27.946],[118.356,28.092],[118.434,28.288],[118.428,28.681],[118.038,29.102],[118.193,29.395]]]},"properties":{"adcode":360000,"name":"江西省","center":[115.892151,28.676493],"centroid":[115.732975,27.636112],"childrenNum":11,"level":"province","parent":{"adcode":100000},"subFeatureIndex":13,"acroutes":[100000]}},
{"type":"Feature","geometry":{"type":"Polygon","coordinates":[[[115.484,36.149],[115.488,35.881],[115.513,35.89],[115.356,35.49],[115.092,35.416],[114.842,35.151],[115.427,34.805],[115.516,34.582],[116.197,34.576],[116.374,34.64],[116.445,34.896],[116.922,34.895],[117.152,34.559],[117.593,34.463],[117.794,34.652],[118.425,34.595],[118.69,34.678],[118.863,35.026],[119.306,35.077],[119.868,35.609],[120.064,35.873],[120.643,36.115],[120.694,36.39],[121.161,36.651],[122.009,36.962],[122.344,36.828],[122.651,37.389],[121.924,37.473],[121.477,37.476],[121.174,37.597],[120.941,37.82],[120.368,37.698],[120.144,37.482],[119.844,37.377],[119.74,37.134],[119.362,37.126],[119.054,37.255],[118.94,37.527],[119.309,37.805],[118.811,38.158],[118.505,38.114],[118.019,38.202],[117.896,38.302],[117.439,37.854],[116.805,37.849],[116.381,37.523],[116.38,37.522],[115.976,37.337],[115.684,36.808],[115.48,36.76],[115.273,36.497],[115.484,36.149]]]},"properties":{"adcode":370000,"name":"山东省","center":[117.000923,36.675807],"centroid":[118.187759,36.376092],"childrenNum":16,"level":"province","parent":{"adcode":100000},"subFeatureIndex":14,"acroutes":[100000]}},
{"type":"Feature","geometry":{"type":"Polygon","coordinates":[[[113.731,36.363],[113.695,36.027],[113.499,35.532],[112.773,35.208],[112.059,35.28],[111.933,35.083],[110.825,34.616],[110.379,34.601],[110.44,34.243],[111.027,33.478],[111.027,33.468],[110.985,33.255],[111.047,33.203],[111.046,33.17],[111.578,32.593],[111.713,32.606],[112.156,32.377],[112.717,32.358],[112.736,32.356],[113.212,32.432],[113.429,32.271],[113.769,32.301],[113.749,32.273],[113.854,31.843],[114.444,31.728],[114.83,31.459],[115.125,31.599],[115.374,31.406],[115.495,31.673],[115.886,31.776],[115.942,32.166],[115.846,32.502],[115.509,32.467],[115.509,32.469],[115.201,32.592],[115.197,32.856],[114.943,32.935],[114.903,33.13],[115.304,33.15],[115.315,33.431],[115.601,33.659],[115.607,34.03],[115.958,34.008],[116.156,33.71],[116.643,33.897],[116.528,34.123],[116.162,34.46],[116.197,34.576],[115.516,34.582],[115.427,34.805],[114.842,35.151],[115.092,35.416],[115.356,35.49],[115.513,35.89],[115.488,35.881],[115.484,36.149],[115.125,36.21],[114.587,36.141],[113.731,36.363]]]},"properties":{"adcode":410000,"name":"河南省","center":[113.665412,34.757975],"centroid":[113.619717,33.902648],"childrenNum":18,"level":"province","parent":{"adcode":100000},"subFeatureIndex":15,"acroutes":[100000]}},
{"type":"Feature","geometry":{"type":"MultiPolygon","coordinates":[[[[115.374,31.406],[115.125,31.599],[114.83,31.459],[114.444,31.728],[113.854,31.843],[113.749,32.273],[113.769,32.301],[113.429,32.271],[113.212,32.432],[112.736,32.356],[112.717,32.358],[112.156,32.377],[111.713,32.606],[111.578,32.593],[111.046,33.17],[111.047,33.203],[110.985,33.255],[110.703,33.097],[109.852,33.248],[109.795,33.067],[110.159,32.767],[110.154,32.593],[109.632,32.6],[109.495,32.3],[109.622,32.107],[109.586,31.727],[109.97,31.509],[110.162,31.314],[110.152,30.912],[109.895,30.9],[109.361,30.551],[109.104,30.566],[109.093,30.579],[109.106,30.611],[108.839,30.503],[108.427,30.492],[108.582,30.256],[108.516,29.885],[108.844,29.658],[109.232,29.119],[109.516,29.626],[109.779,29.758],[110.114,29.79],[110.372,29.633],[110.643,29.776],[110.498,30.055],[110.747,30.113],[111.242,30.04],[111.554,29.894],[111.758,29.92],[112.369,29.541],[112.694,29.602],[112.894,29.784],[112.924,29.767],[112.95,29.473],[113.145,29.449],[113.378,29.703],[113.739,29.579],[113.61,29.251],[113.942,29.047],[114.259,29.344],[114.52,29.326],[115.144,29.646],[115.355,29.65],[115.512,29.84],[115.966,29.724],[116.135,29.82],[116.066,30.205],[115.763,30.685],[116.072,30.957],[115.867,31.148],[115.586,31.144],[115.374,31.406]]],[[[109.106,30.571],[109.101,30.579],[109.099,30.579],[109.106,30.571]]]]},"properties":{"adcode":420000,"name":"湖北省","center":[114.298572,30.584355],"centroid":[112.271301,30.987527],"childrenNum":17,"level":"province","parent":{"adcode":100000},"subFeatureIndex":16,"acroutes":[100000]}},
{"type":"Feature","geometry":{"type":"Polygon","coordinates":[[[113.942,29.047],[113.61,29.251],[113.739,29.579],[113.378,29.703],[113.145,29.449],[112.95,29.473],[112.924,29.767],[112.894,29.784],[112.694,29.602],[112.369,29.541],[111.758,29.92],[111.554,29.894],[111.242,30.04],[110.747,30.113],[110.498,30.055],[110.643,29.776],[110.372,29.633],[110.114,29.79],[109.779,29.758],[109.516,29.626],[109.232,29.119],[109.274,28.495],[109.368,28.255],[109.302,27.956],[109.451,27.586],[108.908,27.205],[109.033,27.104],[109.415,27.154],[109.453,26.862],[109.522,26.749],[109.487,26.76],[109.286,26.296],[109.482,26.03],[110.065,26.05],[110.326,25.975],[110.612,26.334],[110.759,26.248],[111.209,26.304],[111.19,25.953],[111.442,25.772],[111.279,25.423],[111.104,25.285],[111.102,25.035],[111.375,25.128],[111.47,24.929],[111.708,24.789],[112.024,24.74],[112.167,24.86],[112.187,25.182],[112.66,25.133],[112.781,24.897],[112.995,24.927],[112.935,25.326],[113.249,25.514],[113.45,25.359],[113.815,25.329],[113.945,25.442],[113.914,25.701],[114.088,26.168],[114.109,26.57],[113.861,26.664],[113.927,26.949],[113.617,27.346],[113.607,27.625],[114.253,28.319],[114.086,28.558],[114.157,28.762],[113.942,29.047]]]},"properties":{"adcode":430000,"name":"湖南省","center":[112.982279,28.19409],"centroid":[111.711649,27.629216],"childrenNum":14,"level":"province","parent":{"adcode":100000},"subFeatureIndex":17,"acroutes":[100000]}},
{"type":"Feature","geometry":{"type":"Polygon","coordinates":[[[115.893,24.937],[115.689,24.545],[115.413,24.793],[115.105,24.668],[114.534,24.559],[114.258,24.641],[114.714,25.316],[114.541,25.417],[114.116,25.302],[113.945,25.442],[113.815,25.329],[113.45,25.359],[113.249,25.514],[112.935,25.326],[112.995,24.927],[112.781,24.897],[112.66,25.133],[112.187,25.182],[112.167,24.86],[112.024,24.74],[112.058,24.387],[111.913,24.222],[111.811,23.807],[111.487,23.627],[111.353,23.285],[111.359,22.889],[111.056,22.649],[110.749,22.557],[110.725,22.296],[110.352,22.098],[110.392,21.894],[109.945,21.844],[109.785,21.457],[109.656,20.929],[109.909,20.237],[110.453,20.311],[110.55,20.473],[110.209,21.051],[110.626,21.216],[110.796,21.375],[111.795,21.611],[112.647,21.758],[112.793,21.921],[113.267,21.872],[113.554,22.107],[113.559,22.212],[113.74,22.534],[114.032,22.504],[114.233,22.54],[114.75,22.764],[115.076,22.788],[115.565,22.684],[115.654,22.866],[115.883,22.786],[116.303,22.952],[116.505,22.931],[116.929,23.53],[117.193,23.562],[117.055,23.694],[116.904,24.37],[116.667,24.659],[116.346,24.829],[115.893,24.937]]]},"properties":{"adcode":440000,"name":"广东省","center":[113.280637,23.125178],"centroid":[113.429919,23.334643],"childrenNum":21,"level":"province","parent":{"adcode":100000},"subFeatureIndex":18,"acroutes":[100000]}},
{"type":"Feature","geometry":{"type":"Polygon","coordinates":[[[109.482,26.03],[109.296,25.714],[108.949,25.557],[108.686,25.587],[108.162,25.445],[108.115,25.21],[107.839,25.116],[107.513,25.209],[107.264,25.543],[107.064,25.559],[107.014,25.276],[106.191,24.953],[106.047,24.684],[105.497,24.809],[105.428,24.931],[105.096,24.929],[105.078,24.918],[105.034,24.788],[104.703,24.646],[104.53,24.732],[104.576,24.425],[105.107,24.415],[105.2,24.105],[105.493,24.017],[105.919,24.122],[106.192,23.825],[106,23.448],[105.816,23.507],[105.543,23.184],[105.894,22.937],[106.207,22.979],[106.366,22.858],[106.606,22.926],[106.821,22.769],[106.56,22.456],[106.706,22.022],[107,21.948],[107.364,21.602],[107.864,21.651],[108.398,21.533],[108.592,21.677],[109.139,21.568],[109.139,21.389],[109.785,21.457],[109.945,21.844],[110.392,21.894],[110.352,22.098],[110.725,22.296],[110.749,22.557],[111.056,22.649],[111.359,22.889],[111.353,23.285],[111.487,23.627],[111.811,23.807],[111.913,24.222],[112.058,24.387],[112.024,24.74],[111.708,24.789],[111.47,24.929],[111.375,25.128],[111.102,25.035],[111.104,25.285],[111.279,25.423],[111.442,25.772],[111.19,25.953],[111.209,26.304],[110.759,26.248],[110.612,26.334],[110.326,25.975],[110.065,26.05],[109.482,26.03]]]},"properties":{"adcode":450000,"name":"广西壮族自治区","center":[108.320004,22.82402],"centroid":[108.7944,23.833381],"childrenNum":14,"level":"province","parent":{"adcode":100000},"subFeatureIndex":19,"acroutes":[100000]}},
{"type":"Feature","geometry":{"type":"MultiPolygon","coordinates":[[[[110.106,20.027],[109.301,19.918],[109.17,19.736],[108.765,19.401],[108.591,19.142],[108.645,18.487],[109.585,18.144],[109.785,18.34],[110.09,18.399],[110.246,18.61],[110.499,18.652],[110.73,19.379],[111.072,19.629],[110.966,20.018],[110.387,20.113],[110.106,20.027]]],[[[113.897,7.607],[113.987,7.536],[114.369,7.639],[114.415,7.953],[113.897,7.607]]]]},"properties":{"adcode":460000,"name":"海南省","center":[110.33119,20.031971],"centroid":[109.754859,19.189767],"childrenNum":19,"level":"province","parent":{"adcode":100000},"subFeatureIndex":20,"acroutes":[100000]}},
{"type":"Feature","geometry":{"type":"Polygon","coordinates":[[[109.586,31.727],[109.276,31.799],[108.51,32.201],[108.344,31.861],[108.519,31.666],[108.186,31.337],[107.956,30.883],[107.516,30.855],[107.517,30.645],[107.058,30.043],[107.054,30.044],[106.982,30.085],[106.976,30.083],[106.732,30.027],[106.612,30.236],[106.612,30.292],[106.264,30.21],[106.26,30.197],[105.792,30.427],[105.561,30.184],[105.551,30.179],[105.574,30.131],[105.583,30.124],[105.708,29.841],[105.297,29.571],[105.459,29.289],[105.695,29.287],[105.762,28.991],[106.173,28.92],[106.374,28.526],[106.867,28.625],[107.016,28.883],[107.384,28.849],[107.402,29.185],[108.298,29.046],[108.439,28.634],[108.78,28.426],[109.006,28.163],[109.274,28.495],[109.232,29.119],[108.844,29.658],[108.516,29.885],[108.582,30.256],[108.427,30.492],[108.839,30.503],[109.106,30.611],[109.093,30.579],[109.104,30.566],[109.361,30.551],[109.895,30.9],[110.152,30.912],[110.162,31.314],[109.97,31.509],[109.586,31.727]],[[109.106,30.571],[109.099,30.579],[109.101,30.579],[109.106,30.571]]]},"properties":{"adcode":500000,"name":"重庆市","center":[106.504962,29.533155],"centroid":[107.8839,30.067297],"childrenNum":38,"level":"province","parent":{"adcode":100000},"subFeatureIndex":21,"acroutes":[100000]}},
{"type":"Feature","geometry":{"type":"Polygon","coordinates":[[[108.51,32.201],[107.864,32.201],[107.681,32.397],[107.264,32.403],[107.013,32.721],[106.451,32.66],[106.071,32.758],[106.073,32.764],[105.596,32.699],[105.499,32.912],[105.449,32.733],[105.111,32.594],[104.882,32.601],[104.294,32.836],[104.378,33.109],[104.046,33.686],[103.778,33.659],[103.154,33.819],[103.124,34.162],[102.912,34.313],[102.392,33.972],[102.226,33.963],[102.461,33.501],[102.055,33.19],[101.769,33.539],[101.488,33.227],[101.183,33.269],[101.124,32.91],[101.223,32.726],[100.932,32.6],[100.545,32.57],[100.399,32.756],[100.139,32.724],[99.877,32.993],[99.589,32.789],[99.196,33.035],[98.859,33.151],[98.742,33.478],[98.407,33.867],[98.4,34.085],[97.81,34.208],[97.66,33.956],[97.395,33.889],[97.552,33.466],[97.376,32.957],[97.483,32.654],[97.731,32.527],[98.219,32.342],[98.435,32.008],[98.415,31.832],[98.887,31.375],[98.602,31.192],[98.806,30.996],[99.068,29.932],[98.992,29.677],[99.114,29.221],[99.165,28.425],[99.375,28.182],[99.464,28.549],[99.677,28.81],[99.919,28.599],[100.153,28.208],[100.089,28.029],[100.309,27.861],[100.782,27.692],[101.168,27.198],[101.136,27.024],[101.399,26.842],[101.507,26.5],[101.9,26.099],[102.998,26.372],[103.053,26.514],[102.871,27.027],[102.883,27.258],[103.488,27.795],[103.47,28.122],[103.877,28.316],[103.833,28.605],[104.171,28.643],[104.363,28.013],[104.573,27.841],[105.168,28.072],[105.308,27.705],[105.624,27.666],[106.337,27.859],[106.267,28.067],[105.976,28.108],[105.624,28.518],[106.031,28.695],[106.374,28.526],[106.173,28.92],[105.762,28.991],[105.695,29.287],[105.459,29.289],[105.297,29.571],[105.708,29.841],[105.583,30.124],[105.574,30.131],[105.551,30.179],[105.561,30.184],[105.792,30.427],[106.26,30.197],[106.264,30.21],[106.612,30.292],[106.612,30.236],[106.732,30.027],[106.976,30.083],[106.982,30.085],[107.054,30.044],[107.058,30.043],[107.517,30.645],[107.516,30.855],[107.956,30.883],[108.186,31.337],[108.519,31.666],[108.344,31.861],[108.51,32.201]]]},"properties":{"adcode":510000,"name":"四川省","center":[104.065735,30.659462],"centroid":[102.693453,30.674545],"childrenNum":21,"level":"province","parent":{"adcode":100000},"subFeatureIndex":22,"acroutes":[100000]}},
{"type":"Feature","geometry":{"type":"Polygon","coordinates":[[[109.274,28.495],[109.006,28.163],[108.78,28.426],[108.439,28.634],[108.298,29.046],[107.402,29.185],[107.384,28.849],[107.016,28.883],[106.867,28.625],[106.374,28.526],[106.031,28.695],[105.624,28.518],[105.976,28.108],[106.267,28.067],[106.337,27.859],[105.624,27.666],[105.308,27.705],[105.184,27.393],[104.612,27.307],[104.363,27.468],[104.173,27.263],[103.956,27.425],[103.696,27.126],[103.763,26.585],[104.121,26.638],[104.557,26.59],[104.666,26.434],[104.333,25.599],[104.64,25.296],[104.713,24.996],[104.53,24.732],[104.703,24.646],[105.034,24.788],[105.078,24.918],[105.096,24.929],[105.428,24.931],[105.497,24.809],[106.047,24.684],[106.191,24.953],[107.014,25.276],[107.064,25.559],[107.264,25.543],[107.513,25.209],[107.839,25.116],[108.115,25.21],[108.162,25.445],[108.686,25.587],[108.949,25.557],[109.296,25.714],[109.482,26.03],[109.286,26.296],[109.487,26.76],[109.522,26.749],[109.453,26.862],[109.415,27.154],[109.033,27.104],[108.908,27.205],[109.451,27.586],[109.302,27.956],[109.368,28.255],[109.274,28.495]]]},"properties":{"adcode":520000,"name":"贵州省","center":[106.713478,26.578343],"centroid":[106.880455,26.826368],"childrenNum":9,"level":"province","parent":{"adcode":100000},"subFeatureIndex":23,"acroutes":[100000]}},
{"type":"Feature","geometry":{"type":"Polygon","coordinates":[[[104.53,24.732],[104.713,24.996],[104.64,25.296],[104.333,25.599],[104.666,26.434],[104.557,26.59],[104.121,26.638],[103.763,26.585],[103.696,27.126],[103.956,27.425],[104.173,27.263],[104.363,27.468],[104.612,27.307],[105.184,27.393],[105.308,27.705],[105.168,28.072],[104.573,27.841],[104.363,28.013],[104.171,28.643],[103.833,28.605],[103.877,28.316],[103.47,28.122],[103.488,27.795],[102.883,27.258],[102.871,27.027],[103.053,26.514],[102.998,26.372],[101.9,26.099],[101.507,26.5],[101.399,26.842],[101.136,27.024],[101.168,27.198],[100.782,27.692],[100.309,27.861],[100.089,28.029],[100.153,28.208],[99.919,28.599],[99.677,28.81],[99.464,28.549],[99.375,28.182],[99.165,28.425],[99.114,29.221],[99.013,29.037],[98.657,28.91],[98.594,28.668],[98.712,28.229],[98.429,28.105],[98.139,28.142],[98.234,27.691],[98.707,27.553],[98.696,27.211],[98.782,26.621],[98.614,25.968],[98.402,25.594],[97.717,24.978],[97.57,24.766],[97.555,24.491],[97.902,24.014],[98.22,24.114],[98.877,24.151],[98.686,23.902],[98.882,23.595],[98.89,23.209],[99.106,23.087],[99.528,23.066],[99.563,22.926],[99.327,22.751],[99.382,22.493],[99.22,22.111],[99.972,22.053],[99.991,21.704],[100.235,21.467],[100.579,21.452],[101.09,21.774],[101.29,21.179],[101.533,21.252],[101.765,21.148],[101.772,21.833],[101.547,22.238],[101.672,22.475],[102.256,22.457],[102.511,22.775],[103.03,22.441],[103.321,22.778],[103.642,22.795],[103.965,22.502],[104.118,22.809],[104.376,22.69],[104.86,22.971],[104.804,23.11],[105.325,23.39],[105.543,23.184],[105.816,23.507],[106,23.448],[106.192,23.825],[105.919,24.122],[105.493,24.017],[105.2,24.105],[105.107,24.415],[104.576,24.425],[104.53,24.732]]]},"properties":{"adcode":530000,"name":"云南省","center":[102.712251,25.040609],"centroid":[101.485106,25.008643],"childrenNum":16,"level":"province","parent":{"adcode":100000},"subFeatureIndex":24,"acroutes":[100000]}},
{"type":"Feature","geometry":{"type":"Polygon","coordinates":[[[97.731,32.527],[97.388,32.502],[97.215,32.043],[96.743,32.001],[96.568,31.712],[96.389,31.92],[96.149,31.686],[95.457,31.802],[95.454,32.062],[95.239,32.287],[94.912,32.416],[94.638,32.645],[94.177,32.454],[93.517,32.476],[93.24,32.662],[92.356,32.765],[91.227,33.142],[90.704,33.136],[90.107,33.461],[90.008,33.688],[89.688,33.96],[89.867,34.325],[89.821,34.902],[89.579,34.895],[89.497,35.361],[89.766,35.6],[89.655,35.848],[89.711,36.093],[88.624,36.39],[88.471,36.482],[87.57,36.342],[86.393,36.207],[86.188,36.131],[85.949,35.779],[85.374,35.7],[85.271,35.789],[84.449,35.55],[84.333,35.414],[83.542,35.342],[83.127,35.399],[82.967,35.668],[82.425,35.713],[82.034,35.452],[81.928,35.271],[81.513,35.235],[80.321,35.387],[80.23,35.148],[80.031,35.034],[79.802,34.479],[79.04,34.335],[78.737,34],[78.692,33.676],[78.85,33.42],[79.162,33.166],[79.308,32.597],[78.971,32.332],[78.686,32.68],[78.395,32.53],[78.763,31.668],[78.795,31.301],[79.01,31.044],[79.506,31.028],[79.758,30.937],[80.143,30.558],[80.633,30.459],[81.035,30.247],[81.226,30.006],[81.63,30.447],[81.991,30.323],[82.247,30.072],[82.704,29.848],[82.831,29.688],[83.218,29.6],[83.656,29.167],[83.912,29.323],[84.117,29.286],[84.483,28.735],[85.108,28.461],[85.272,28.283],[85.521,28.327],[85.901,28.054],[86.45,27.909],[86.7,28.102],[87.228,27.813],[87.727,27.803],[88.764,28.068],[88.889,27.847],[88.771,27.564],[88.985,27.209],[89.239,27.797],[89.605,28.162],[89.79,28.241],[90.384,28.061],[90.802,28.04],[91.026,27.857],[91.31,28.058],[91.612,27.891],[91.585,27.541],[92.011,27.475],[92.109,26.855],[92.682,26.948],[93.111,26.88],[93.568,26.938],[94.277,27.581],[94.525,27.596],[95.286,27.94],[95.372,28.11],[95.875,28.298],[96.275,28.228],[96.85,27.874],[97.103,27.781],[97.254,27.892],[97.402,28.28],[97.686,28.52],[98.139,28.142],[98.429,28.105],[98.712,28.229],[98.594,28.668],[98.657,28.91],[99.013,29.037],[99.114,29.221],[98.992,29.677],[99.068,29.932],[98.806,30.996],[98.602,31.192],[98.887,31.375],[98.415,31.832],[98.435,32.008],[98.219,32.342],[97.731,32.527]]]},"properties":{"adcode":540000,"name":"西藏自治区","center":[91.132212,29.660361],"centroid":[88.388277,31.56375],"childrenNum":7,"level":"province","parent":{"adcode":100000},"subFeatureIndex":25,"acroutes":[100000]}},
{"type":"Feature","geometry":{"type":"Polygon","coordinates":[[[111.126,39.366],[110.87,39.494],[110.626,39.267],[110.385,39.31],[109.961,39.192],[109.054,38.434],[108.628,37.652],[108.013,37.669],[107.65,37.864],[107.499,37.766],[107.258,37.337],[107.269,37.099],[107.478,36.908],[107.907,36.75],[108.061,36.592],[108.619,36.434],[108.713,36.139],[108.499,35.872],[108.615,35.329],[108.489,35.275],[107.667,35.257],[107.742,34.954],[107.287,34.932],[106.902,35.095],[106.542,35.084],[106.575,34.77],[106.314,34.579],[106.717,34.369],[106.502,34.105],[106.581,33.576],[105.972,33.613],[105.753,33.292],[105.965,33.204],[105.917,32.994],[105.499,32.912],[105.596,32.699],[106.073,32.764],[106.071,32.758],[106.451,32.66],[107.013,32.721],[107.264,32.403],[107.681,32.397],[107.864,32.201],[108.51,32.201],[109.276,31.799],[109.586,31.727],[109.622,32.107],[109.495,32.3],[109.632,32.6],[110.154,32.593],[110.159,32.767],[109.795,33.067],[109.852,33.248],[110.703,33.097],[110.985,33.255],[111.027,33.468],[111.027,33.478],[110.44,34.243],[110.379,34.601],[110.231,34.881],[110.61,35.632],[110.447,36.164],[110.504,36.488],[110.408,36.776],[110.461,37.045],[110.795,37.559],[110.523,37.955],[110.578,38.297],[110.874,38.454],[110.881,38.627],[111.248,39.302],[111.126,39.366]]]},"properties":{"adcode":610000,"name":"陕西省","center":[108.948024,34.263161],"centroid":[108.887114,35.263661],"childrenNum":10,"level":"province","parent":{"adcode":100000},"subFeatureIndex":26,"acroutes":[100000]}},
{"type":"Feature","geometry":{"type":"Polygon","coordinates":[[[97.173,42.795],[96.386,42.728],[96.024,42.543],[96.178,42.218],[96.117,41.986],[95.571,41.796],[95.247,41.613],[95.136,41.773],[94.534,41.506],[94.184,41.268],[93.81,40.88],[93.761,40.665],[92.928,40.573],[92.64,39.514],[92.339,39.237],[92.41,39.038],[92.939,39.17],[93.274,38.896],[93.729,38.924],[93.885,38.721],[94.37,38.763],[94.527,38.365],[95.122,38.417],[95.259,38.303],[95.672,38.388],[96.264,38.146],[96.627,38.356],[96.847,38.599],[96.962,39.198],[97.347,39.168],[98.009,38.859],[98.281,39.027],[98.585,38.93],[98.744,39.087],[99.362,38.718],[99.659,38.449],[100.183,38.222],[100.46,38.265],[100.914,38.179],[100.964,38.011],[101.363,37.791],[101.946,37.728],[102.197,37.42],[102.6,37.175],[102.45,36.968],[102.692,36.776],[102.83,36.366],[102.836,36.345],[103.025,36.257],[102.914,35.845],[102.686,35.772],[102.312,35.283],[102.296,35.072],[101.917,34.874],[101.92,34.622],[102.206,34.408],[101.955,34.11],[100.895,34.375],[100.806,34.156],[101.177,33.685],[101.584,33.674],[101.769,33.539],[102.055,33.19],[102.461,33.501],[102.226,33.963],[102.392,33.972],[102.912,34.313],[103.124,34.162],[103.154,33.819],[103.778,33.659],[104.046,33.686],[104.378,33.109],[104.294,32.836],[104.882,32.601],[105.111,32.594],[105.449,32.733],[105.499,32.912],[105.917,32.994],[105.965,33.204],[105.753,33.292],[105.972,33.613],[106.581,33.576],[106.502,34.105],[106.717,34.369],[106.314,34.579],[106.575,34.77],[106.542,35.084],[106.902,35.095],[107.287,34.932],[107.742,34.954],[107.667,35.257],[108.489,35.275],[108.615,35.329],[108.499,35.872],[108.713,36.139],[108.619,36.434],[108.061,36.592],[107.907,36.75],[107.478,36.908],[107.269,37.099],[106.667,37.017],[106.628,36.753],[106.466,36.583],[106.559,36.292],[106.958,36.091],[106.928,35.81],[106.506,35.738],[106.493,35.733],[106.472,35.311],[106.083,35.422],[106.073,35.447],[106.071,35.449],[106.07,35.458],[106.072,35.464],[106.047,35.498],[105.325,35.942],[105.515,36.147],[105.22,36.631],[105.335,36.801],[104.955,37.04],[104.68,37.408],[104.287,37.428],[104.184,37.407],[103.683,37.778],[103.407,37.861],[103.535,38.157],[103.416,38.405],[103.86,38.645],[104.208,39.083],[103.853,39.462],[103.345,39.332],[103.008,39.1],[102.453,39.255],[101.834,39.089],[102.075,38.891],[101.777,38.66],[101.331,38.777],[101.199,38.943],[100.835,39.026],[100.842,39.406],[100.499,39.401],[100.25,39.685],[99.822,39.86],[100.169,40.278],[100.237,40.717],[100.057,40.908],[99.673,40.933],[99.175,40.858],[98.344,40.568],[98.333,40.919],[97.972,41.098],[97.614,41.477],[97.847,41.656],[97.173,42.795]]]},"properties":{"adcode":620000,"name":"甘肃省","center":[103.823557,36.058039],"childrenNum":14,"level":"province","parent":{"adcode":100000},"subFeatureIndex":27,"acroutes":[100000]}},
{"type":"Feature","geometry":{"type":"Polygon","coordinates":[[[101.769,33.539],[101.584,33.674],[101.177,33.685],[100.806,34.156],[100.895,34.375],[101.955,34.11],[102.206,34.408],[101.92,34.622],[101.917,34.874],[102.296,35.072],[102.312,35.283],[102.686,35.772],[102.914,35.845],[103.025,36.257],[102.836,36.345],[102.83,36.366],[102.692,36.776],[102.45,36.968],[102.6,37.175],[102.197,37.42],[101.946,37.728],[101.363,37.791],[100.964,38.011],[100.914,38.179],[100.46,38.265],[100.183,38.222],[99.659,38.449],[99.362,38.718],[98.744,39.087],[98.585,38.93],[98.281,39.027],[98.009,38.859],[97.347,39.168],[96.962,39.198],[96.847,38.599],[96.627,38.356],[96.264,38.146],[95.672,38.388],[95.259,38.303],[95.122,38.417],[94.527,38.365],[94.37,38.763],[93.885,38.721],[93.729,38.924],[93.274,38.896],[92.939,39.17],[92.41,39.038],[91.299,38.746],[90.646,38.635],[90.427,38.494],[90.531,38.32],[90.52,37.731],[91.1,37.448],[91.181,37.025],[90.732,36.826],[90.741,36.586],[91.036,36.53],[91.125,36.116],[90.85,36.017],[90.659,36.135],[90.237,36.16],[89.711,36.093],[89.655,35.848],[89.766,35.6],[89.497,35.361],[89.579,34.895],[89.821,34.902],[89.867,34.325],[89.688,33.96],[90.008,33.688],[90.107,33.461],[90.704,33.136],[91.227,33.142],[92.356,32.765],[93.24,32.662],[93.517,32.476],[94.177,32.454],[94.638,32.645],[94.912,32.416],[95.239,32.287],[95.454,32.062],[95.457,31.802],[96.149,31.686],[96.389,31.92],[96.568,31.712],[96.743,32.001],[97.215,32.043],[97.388,32.502],[97.731,32.527],[97.483,32.654],[97.376,32.957],[97.552,33.466],[97.395,33.889],[97.66,33.956],[97.81,34.208],[98.4,34.085],[98.407,33.867],[98.742,33.478],[98.859,33.151],[99.196,33.035],[99.589,32.789],[99.877,32.993],[100.139,32.724],[100.399,32.756],[100.545,32.57],[100.932,32.6],[101.223,32.726],[101.124,32.91],[101.183,33.269],[101.488,33.227],[101.769,33.539]]]},"properties":{"adcode":630000,"name":"青海省","center":[101.778916,36.623178],"centroid":[96.043533,35.726403],"childrenNum":8,"level":"province","parent":{"adcode":100000},"subFeatureIndex":28,"acroutes":[100000]}},
{"type":"Feature","geometry":{"type":"Polygon","coordinates":[[[104.287,37.428],[104.68,37.408],[104.955,37.04],[105.335,36.801],[105.22,36.631],[105.515,36.147],[105.325,35.942],[106.047,35.498],[106.072,35.464],[106.07,35.458],[106.071,35.449],[106.073,35.447],[106.083,35.422],[106.472,35.311],[106.493,35.733],[106.506,35.738],[106.928,35.81],[106.958,36.091],[106.559,36.292],[106.466,36.583],[106.628,36.753],[106.667,37.017],[107.269,37.099],[107.258,37.337],[107.499,37.766],[107.65,37.864],[107.139,38.161],[106.779,38.172],[106.482,38.319],[106.709,38.719],[106.954,38.941],[106.751,39.382],[106.146,39.153],[105.909,38.791],[105.775,38.187],[105.84,38.004],[105.599,37.699],[105.028,37.581],[104.434,37.515],[104.287,37.428]]]},"properties":{"adcode":640000,"name":"宁夏回族自治区","center":[106.278179,38.46637],"centroid":[106.169866,37.291332],"childrenNum":5,"level":"province","parent":{"adcode":100000},"subFeatureIndex":29,"acroutes":[100000]}},
{"type":"Feature","geometry":{"type":"Polygon","coordinates":[[[89.711,36.093],[90.237,36.16],[90.659,36.135],[90.85,36.017],[91.125,36.116],[91.036,36.53],[90.741,36.586],[90.732,36.826],[91.181,37.025],[91.1,37.448],[90.52,37.731],[90.531,38.32],[90.427,38.494],[90.646,38.635],[91.299,38.746],[92.41,39.038],[92.339,39.237],[92.64,39.514],[92.928,40.573],[93.761,40.665],[93.81,40.88],[94.184,41.268],[94.534,41.506],[95.136,41.773],[95.247,41.613],[95.571,41.796],[96.117,41.986],[96.178,42.218],[96.024,42.543],[96.386,42.728],[96.364,42.901],[95.921,43.23],[95.414,44.299],[94.999,44.253],[94.359,44.516],[94.215,44.668],[93.509,44.968],[92.779,45.051],[92.501,45.001],[92.1,45.081],[91.562,45.076],[90.832,45.3],[90.671,45.488],[90.715,45.729],[91.028,46.023],[90.9,46.312],[91.079,46.559],[90.901,46.961],[90.488,47.317],[90.332,47.682],[90.087,47.865],[89.762,47.836],[89.569,48.038],[89.078,47.987],[88.638,48.184],[88.504,48.413],[87.973,48.576],[87.827,48.801],[87.821,49.174],[86.888,49.132],[86.732,48.995],[86.781,48.731],[86.58,48.539],[85.792,48.419],[85.547,48.008],[85.683,47.223],[84.934,46.864],[84.748,47.01],[83.933,46.97],[83.37,47.178],[83.027,47.215],[82.727,46.495],[82.343,45.935],[82.282,45.539],[82.547,45.426],[82.587,45.224],[81.921,45.233],[81.788,45.384],[81.463,45.264],[80.145,45.059],[79.888,44.909],[80.412,44.605],[80.394,44.127],[80.755,43.494],[80.804,43.178],[80.379,43.032],[80.164,42.63],[80.286,42.233],[79.776,41.892],[79.326,41.81],[78.455,41.412],[77.781,41.023],[76.762,40.954],[76.509,40.43],[75.89,40.309],[75.55,40.649],[75.242,40.449],[74.819,40.506],[74.673,40.279],[74.357,40.089],[74.023,40.085],[73.845,39.831],[73.954,39.6],[73.554,39.35],[73.743,39.03],[73.809,38.634],[74.148,38.677],[74.64,38.6],[74.863,38.484],[74.822,38.103],[75.006,37.771],[75.126,37.322],[74.568,37.033],[75.414,36.955],[75.426,36.779],[75.724,36.751],[75.947,36.591],[76.16,35.824],[76.594,35.772],[76.769,35.654],[77.397,35.468],[77.816,35.519],[78.013,35.366],[78.238,34.882],[78.281,34.623],[78.708,34.522],[79.04,34.335],[79.802,34.479],[80.031,35.034],[80.23,35.148],[80.321,35.387],[81.513,35.235],[81.928,35.271],[82.034,35.452],[82.425,35.713],[82.967,35.668],[83.127,35.399],[83.542,35.342],[84.333,35.414],[84.449,35.55],[85.271,35.789],[85.374,35.7],[85.949,35.779],[86.188,36.131],[86.393,36.207],[87.57,36.342],[88.471,36.482],[88.624,36.39],[89.711,36.093]]]},"properties":{"adcode":650000,"name":"新疆维吾尔自治区","center":[87.617733,43.792818],"centroid":[85.294711,41.371801],"childrenNum":24,"level":"province","parent":{"adcode":100000},"subFeatureIndex":30,"acroutes":[100000]}},
{"type":"Feature","geometry":{"type":"Polygon","coordinates":[[[120.444,22.441],[120.641,22.242],[120.702,21.927],[120.873,21.897],[120.915,22.303],[121.033,22.651],[121.324,22.946],[121.48,23.323],[121.644,24.098],[121.886,24.53],[121.845,24.836],[122.013,25.001],[121.623,25.295],[121.025,25.041],[120.689,24.601],[120.102,23.701],[120.133,23.001],[120.297,22.532],[120.444,22.441]]]},"properties":{"adcode":710000,"name":"台湾省","center":[121.509062,25.044332],"centroid":[120.971485,23.749452],"childrenNum":0,"level":"province","parent":{"adcode":100000},"subFeatureIndex":31,"acroutes":[100000]}},
{"type":"Feature","geometry":{"type":"Polygon","coordinates":[[[114.032,22.504],[114.316,22.299],[114.316,22.3],[114.278,22.329],[114.283,22.387],[114.323,22.386],[114.319,22.382],[114.32,22.381],[114.324,22.384],[114.233,22.54],[114.032,22.504]]]},"properties":{"adcode":810000,"name":"香港特别行政区","center":[114.173355,22.320048],"centroid":[114.134357,22.377366],"childrenNum":18,"level":"province","parent":{"adcode":100000},"subFeatureIndex":32,"acroutes":[100000]}},
{"type":"Feature","geometry":{"type":"Polygon","coordinates":[[[113.554,22.107],[113.576,22.195],[113.559,22.212],[113.554,22.107]]]},"properties":{"adcode":820000,"name":"澳门特别行政区","center":[113.54909,22.198951],"centroid":[113.566988,22.159307],"childrenNum":8,"level":"province","parent":{"adcode":100000},"subFeatureIndex":33,"acroutes":[100000]}},
{"type":"Feature","geometry":{"type":"Polygon","coordinates":[[[121.172,20.805],[121.909,21.687],[121.894,21.7],[121.157,20.818],[121.172,20.805]]]},"properties":{"name":"","adchar":"JD","adcode":"100000_JD"}}
]}
